{"version": 0.6, "generator": "Overpass API 0.7.56.9 76e5016d", "osm3s": {"timestamp_osm_base": "2021-09-28T16:45:01Z", "copyright": "The data included in this document is from www.openstreetmap.org. The data is made available under ODbL."}, "elements": [{"type": "node", "id": 29685446, "lat": -19.9213598, "lon": -43.9955298, "tags": {"highway": "bus_stop"}}, {"type": "node", "id": 94879139, "lat": -19.9200752, "lon": -43.9973925, "tags": {"highway": "bus_stop"}}, {"type": "node", "id": 316637785, "lat": -20.0203281, "lon": -44.0293927, "tags": {"bench": "yes", "bus": "yes", "highway": "bus_stop", "public_transport": "platform", "shelter": "yes"}}, {"type": "node", "id": 536290181, "lat": -19.8895054, "lon": -43.9245326, "tags": {"highway": "bus_stop", "shelter": "no", "source": "survey"}}, {"type": "node", "id": 560383411, "lat": -19.9161794, "lon": -43.9351071, "tags": {"bus": "yes", "highway": "bus_stop", "public_transport": "platform"}}, {"type": "node", "id": 560383444, "lat": -19.9155822, "lon": -43.9343776, "tags": {"bus": "yes", "highway": "bus_stop", "public_transport": "platform"}}, {"type": "node", "id": 560383457, "lat": -19.9162596, "lon": -43.9340535, "tags": {"highway": "bus_stop"}}, {"type": "node", "id": 560383467, "lat": -19.9171054, "lon": -43.9342853, "tags": {"bus": "yes", "highway": "bus_stop", "public_transport": "platform", "shelter": "no"}}, {"type": "node", "id": 560386062, "lat": -19.9156225, "lon": -43.9361886, "tags": {"bus": "yes", "highway": "bus_stop", "public_transport": "platform"}}, {"type": "node", "id": 560386175, "lat": -19.9150173, "lon": -43.9360599, "tags": {"bus": "yes", "highway": "bus_stop", "public_transport": "platform", "shelter": "yes"}}, {"type": "node", "id": 560386906, "lat": -19.9170837, "lon": -43.9347053, "tags": {"highway": "bus_stop"}}, {"type": "node", "id": 560386928, "lat": -19.9162454, "lon": -43.9344635, "tags": {"highway": "bus_stop"}}, {"type": "node", "id": 614227938, "lat": -19.8693879, "lon": -43.963793, "tags": {"bus": "yes", "highway": "bus_stop", "public_transport": "platform"}}, {"type": "node", "id": 614227939, "lat": -19.8684346, "lon": -43.9635121, "tags": {"bus": "yes", "highway": "bus_stop", "public_transport": "platform"}}, {"type": "node", "id": 614227940, "lat": -19.8685958, "lon": -43.9627631, "tags": {"bus": "yes", "highway": "bus_stop", "public_transport": "platform"}}, {"type": "node", "id": 614227941, "lat": -19.8665526, "lon": -43.9651288, "tags": {"bus": "yes", "highway": "bus_stop", "public_transport": "platform"}}, {"type": "node", "id": 614227942, "lat": -19.866684, "lon": -43.9664948, "tags": {"bus": "yes", "highway": "bus_stop", "public_transport": "platform"}}, {"type": "node", "id": 619031073, "lat": -19.9325056, "lon": -44.0191435, "tags": {"highway": "bus_stop"}}, {"type": "node", "id": 622398878, "lat": -19.9486367, "lon": -43.9198099, "tags": {"highway": "bus_stop"}}, {"type": "node", "id": 622398879, "lat": -19.9482774, "lon": -43.9183247, "tags": {"highway": "bus_stop"}}, {"type": "node", "id": 715891454, "lat": -19.8938768, "lon": -44.0076559, "tags": {"bus": "yes", "highway": "bus_stop", "name": "1404A", "public_transport": "platform"}}, {"type": "node", "id": 739461966, "lat": -19.9106495, "lon": -43.919819, "tags": {"highway": "bus_stop", "ref": "9106 sentido Sagrada Fam\u00edlia"}}, {"type": "node", "id": 761496078, "lat": -19.9066808, "lon": -43.9568902, "tags": {"bus": "yes", "highway": "bus_stop", "public_transport": "platform"}}, {"type": "node", "id": 761496091, "lat": -19.9085975, "lon": -43.9580865, "tags": {"bus": "yes", "highway": "bus_stop", "public_transport": "platform"}}, {"type": "node", "id": 761496105, "lat": -19.9100854, "lon": -43.9559246, "tags": {"bus": "yes", "highway": "bus_stop", "public_transport": "platform"}}, {"type": "node", "id": 761496114, "lat": -19.9093591, "lon": -43.9566327, "tags": {"bus": "yes", "highway": "bus_stop", "public_transport": "platform"}}, {"type": "node", "id": 837037412, "lat": -19.9381911, "lon": -43.9979288, "tags": {"highway": "bus_stop"}}, {"type": "node", "id": 837037414, "lat": -19.9358297, "lon": -43.9938401, "tags": {"bench": "yes", "bus": "yes", "departures_board": "no", "highway": "bus_stop", "public_transport": "platform", "shelter": "yes"}}, {"type": "node", "id": 837037415, "lat": -19.9304753, "lon": -43.9807198, "tags": {"bus": "yes", "highway": "bus_stop", "public_transport": "platform"}}, {"type": "node", "id": 837037416, "lat": -19.9296987, "lon": -43.9784452, "tags": {"bus": "yes", "highway": "bus_stop", "public_transport": "platform"}}, {"type": "node", "id": 837037418, "lat": -19.9296684, "lon": -43.9772007, "tags": {"bus": "yes", "highway": "bus_stop", "public_transport": "platform"}}, {"type": "node", "id": 837037425, "lat": -19.931373, "lon": -43.9858696, "tags": {"highway": "bus_stop"}}, {"type": "node", "id": 837037427, "lat": -19.9324926, "lon": -43.9892706, "tags": {"highway": "bus_stop"}}, {"type": "node", "id": 837037429, "lat": -19.9331583, "lon": -43.9920065, "tags": {"highway": "bus_stop"}}, {"type": "node", "id": 837037430, "lat": -19.9380942, "lon": -43.9987581, "tags": {"highway": "bus_stop"}}, {"type": "node", "id": 837037432, "lat": -19.9378079, "lon": -43.9985404, "tags": {"highway": "bus_stop"}}, {"type": "node", "id": 837037437, "lat": -19.872943, "lon": -43.9731988, "tags": {"bus": "yes", "highway": "bus_stop", "public_transport": "platform"}}, {"type": "node", "id": 837037439, "lat": -19.867454, "lon": -43.9787886, "tags": {"bus": "yes", "highway": "bus_stop", "public_transport": "platform"}}, {"type": "node", "id": 837037441, "lat": -19.9247765, "lon": -43.9911267, "tags": {"highway": "bus_stop"}}, {"type": "node", "id": 837037443, "lat": -19.9311007, "lon": -43.9854726, "tags": {"highway": "bus_stop"}}, {"type": "node", "id": 837037445, "lat": -19.9316857, "lon": -43.9856765, "tags": {"highway": "bus_stop"}}, {"type": "node", "id": 837037454, "lat": -19.8694821, "lon": -43.9604852, "tags": {"bus": "yes", "highway": "bus_stop", "public_transport": "platform"}}, {"type": "node", "id": 837037456, "lat": -19.8692122, "lon": -43.9602465, "tags": {"bus": "yes", "highway": "bus_stop", "public_transport": "platform"}}, {"type": "node", "id": 837037458, "lat": -19.8689978, "lon": -43.960335, "tags": {"bus": "yes", "highway": "bus_stop", "public_transport": "platform"}}, {"type": "node", "id": 837037460, "lat": -19.8717927, "lon": -43.9707634, "tags": {"bus": "yes", "highway": "bus_stop", "public_transport": "platform"}}, {"type": "node", "id": 837037467, "lat": -19.863016, "lon": -43.9700155, "tags": {"bus": "yes", "highway": "bus_stop", "public_transport": "platform"}}, {"type": "node", "id": 837037469, "lat": -19.8625803, "lon": -43.9671371, "tags": {"bus": "yes", "highway": "bus_stop", "public_transport": "platform"}}, {"type": "node", "id": 837037472, "lat": -19.8593035, "lon": -43.9600379, "tags": {"bus": "yes", "highway": "bus_stop", "public_transport": "platform"}}, {"type": "node", "id": 837037476, "lat": -19.8524894, "lon": -43.956022, "tags": {"bus": "yes", "highway": "bus_stop", "public_transport": "platform"}}, {"type": "node", "id": 837037482, "lat": -19.891578, "lon": -43.965635, "tags": {"bus": "yes", "highway": "bus_stop", "name": "4032", "name:pt": "4032", "public_transport": "platform"}}, {"type": "node", "id": 837037484, "lat": -19.8912249, "lon": -43.9656457, "tags": {"bus": "yes", "highway": "bus_stop", "name": "4103", "name:pt": "4103", "public_transport": "platform"}}, {"type": "node", "id": 837037486, "lat": -19.8954318, "lon": -43.9657423, "tags": {"bus": "yes", "highway": "bus_stop", "name": "4032", "name:pt": "4032", "public_transport": "platform"}}, {"type": "node", "id": 837037488, "lat": -19.8640434, "lon": -43.9730412, "tags": {"bus": "yes", "highway": "bus_stop", "public_transport": "platform"}}, {"type": "node", "id": 837037490, "lat": -19.8636827, "lon": -43.9736897, "tags": {"bus": "yes", "highway": "bus_stop", "public_transport": "platform"}}, {"type": "node", "id": 837037494, "lat": -19.8769991, "lon": -43.9771792, "tags": {"highway": "bus_stop"}}, {"type": "node", "id": 837037496, "lat": -19.8765652, "lon": -43.9761171, "tags": {"highway": "bus_stop"}}, {"type": "node", "id": 837037498, "lat": -19.8768074, "lon": -43.9758918, "tags": {"highway": "bus_stop"}}, {"type": "node", "id": 837037502, "lat": -19.8879529, "lon": -43.96816, "tags": {"bus": "yes", "highway": "bus_stop", "public_transport": "platform"}}, {"type": "node", "id": 837037504, "lat": -19.8881276, "lon": -43.968328, "tags": {"bus": "yes", "highway": "bus_stop", "public_transport": "platform"}}, {"type": "node", "id": 837037509, "lat": -19.8734576, "lon": -43.9802906, "tags": {"bus": "yes", "highway": "bus_stop", "public_transport": "platform"}}, {"type": "node", "id": 837037511, "lat": -19.8732587, "lon": -43.9828943, "tags": {"bus": "yes", "highway": "bus_stop", "public_transport": "platform"}}, {"type": "node", "id": 837037513, "lat": -19.8727008, "lon": -43.9799151, "tags": {"bus": "yes", "highway": "bus_stop", "public_transport": "platform"}}, {"type": "node", "id": 837037515, "lat": -19.8753746, "lon": -43.9770934, "tags": {"highway": "bus_stop"}}, {"type": "node", "id": 837037517, "lat": -19.8768175, "lon": -43.9766213, "tags": {"highway": "bus_stop"}}, {"type": "node", "id": 837037522, "lat": -19.8725596, "lon": -43.978295, "tags": {"bus": "yes", "highway": "bus_stop", "public_transport": "platform"}}, {"type": "node", "id": 837037524, "lat": -19.8721144, "lon": -43.9789619, "tags": {"bus": "yes", "highway": "bus_stop", "public_transport": "platform"}}, {"type": "node", "id": 837037526, "lat": -19.8713914, "lon": -43.9803515, "tags": {"bus": "yes", "highway": "bus_stop", "public_transport": "platform"}}, {"type": "node", "id": 837037528, "lat": -19.8710336, "lon": -43.9817865, "tags": {"bus": "yes", "highway": "bus_stop", "public_transport": "platform"}}, {"type": "node", "id": 837037529, "lat": -19.8712176, "lon": -43.9818248, "tags": {"bus": "yes", "highway": "bus_stop", "public_transport": "platform"}}, {"type": "node", "id": 837037536, "lat": -19.8714396, "lon": -43.9797542, "tags": {"bus": "yes", "highway": "bus_stop", "public_transport": "platform"}}, {"type": "node", "id": 844254993, "lat": -19.8727683, "lon": -43.976596, "tags": {"bus": "yes", "highway": "bus_stop", "public_transport": "platform"}}, {"type": "node", "id": 844254997, "lat": -19.8606599, "lon": -43.9748364, "tags": {"bus": "yes", "highway": "bus_stop", "public_transport": "platform"}}, {"type": "node", "id": 844255000, "lat": -19.8677636, "lon": -43.9587968, "tags": {"bus": "yes", "highway": "bus_stop", "public_transport": "platform"}}, {"type": "node", "id": 844255004, "lat": -19.8609449, "lon": -43.950978, "tags": {"bus": "yes", "highway": "bus_stop", "noname": "yes", "public_transport": "platform", "shelter": "no"}}, {"type": "node", "id": 844255005, "lat": -19.8608926, "lon": -43.9520154, "tags": {"bench": "no", "bus": "yes", "covered": "no", "highway": "bus_stop", "noname": "yes", "note": "Linhas 503 e 9503.", "public_transport": "platform"}}, {"type": "node", "id": 844255023, "lat": -19.8699784, "lon": -43.9684206, "tags": {"bus": "yes", "highway": "bus_stop", "public_transport": "platform"}}, {"type": "node", "id": 844255029, "lat": -19.8699633, "lon": -43.9665484, "tags": {"bus": "yes", "highway": "bus_stop", "public_transport": "platform"}}, {"type": "node", "id": 844255031, "lat": -19.8685658, "lon": -43.9628899, "tags": {"bus": "yes", "highway": "bus_stop", "public_transport": "platform"}}, {"type": "node", "id": 844255032, "lat": -19.873636, "lon": -43.9770251, "tags": {"bus": "yes", "highway": "bus_stop", "public_transport": "platform"}}, {"type": "node", "id": 844255046, "lat": -19.8700793, "lon": -43.9683133, "tags": {"bus": "yes", "highway": "bus_stop", "public_transport": "platform"}}, {"type": "node", "id": 880757058, "lat": -19.9064665, "lon": -43.9017354, "tags": {"description": "Ponto Final - Linha 9202", "highway": "bus_stop"}}, {"type": "node", "id": 886206931, "lat": -19.8622693, "lon": -43.9678108, "tags": {"bus": "yes", "highway": "bus_stop", "public_transport": "platform"}}, {"type": "node", "id": 894565211, "lat": -19.9496324, "lon": -43.930769, "tags": {"bus": "yes", "highway": "bus_stop", "public_transport": "platform"}}, {"type": "node", "id": 899281243, "lat": -19.9550266, "lon": -43.9401861, "tags": {"highway": "bus_stop"}}, {"type": "node", "id": 899281245, "lat": -19.954936, "lon": -43.9399022, "tags": {"highway": "bus_stop"}}, {"type": "node", "id": 899281247, "lat": -19.9532054, "lon": -43.9389832, "tags": {"bus": "yes", "highway": "bus_stop", "name": "Verdemar 2", "public_transport": "platform", "shelter": "yes"}}, {"type": "node", "id": 899281248, "lat": -19.9515778, "lon": -43.9379817, "tags": {"bus": "yes", "highway": "bus_stop", "public_transport": "platform", "shelter": "yes"}}, {"type": "node", "id": 899281250, "lat": -19.9515475, "lon": -43.9375311, "tags": {"bus": "yes", "highway": "bus_stop", "public_transport": "platform"}}, {"type": "node", "id": 899281255, "lat": -19.9605531, "lon": -43.9448804, "tags": {"highway": "bus_stop", "shelter": "yes"}}, {"type": "node", "id": 937341697, "lat": -19.9406033, "lon": -44.0124049, "tags": {"highway": "bus_stop"}}, {"type": "node", "id": 967975852, "lat": -19.9659769, "lon": -43.9540909, "tags": {"bus": "yes", "highway": "bus_stop", "public_transport": "platform"}}, {"type": "node", "id": 967975854, "lat": -19.9701081, "lon": -43.9534446, "tags": {"highway": "bus_stop"}}, {"type": "node", "id": 967975855, "lat": -19.9716776, "lon": -43.9492172, "tags": {"bus": "yes", "highway": "bus_stop", "public_transport": "platform"}}, {"type": "node", "id": 967975856, "lat": -19.9717953, "lon": -43.9506013, "tags": {"highway": "bus_stop"}}, {"type": "node", "id": 967975857, "lat": -19.969855, "lon": -43.9544053, "tags": {"highway": "bus_stop"}}, {"type": "node", "id": 967975858, "lat": -19.9590069, "lon": -43.9574095, "tags": {"bus": "yes", "highway": "bus_stop", "public_transport": "platform"}}, {"type": "node", "id": 967975859, "lat": -19.9592554, "lon": -43.9572725, "tags": {"bus": "yes", "highway": "bus_stop", "public_transport": "platform"}}, {"type": "node", "id": 967975861, "lat": -19.9630853, "lon": -43.95635, "tags": {"bus": "yes", "highway": "bus_stop", "public_transport": "platform"}}, {"type": "node", "id": 967975862, "lat": -19.9630255, "lon": -43.9561727, "tags": {"bus": "yes", "highway": "bus_stop", "public_transport": "platform"}}, {"type": "node", "id": 967975863, "lat": -19.9675815, "lon": -43.9543832, "tags": {"highway": "bus_stop"}}, {"type": "node", "id": 967975865, "lat": -19.9494265, "lon": -43.9609542, "tags": {"bus": "yes", "highway": "bus_stop", "public_transport": "platform"}}, {"type": "node", "id": 967975866, "lat": -19.9525475, "lon": -43.9614152, "tags": {"bus": "yes", "highway": "bus_stop", "public_transport": "platform"}}, {"type": "node", "id": 967975867, "lat": -19.9518066, "lon": -43.9604177, "tags": {"bus": "yes", "highway": "bus_stop", "public_transport": "platform"}}, {"type": "node", "id": 967975868, "lat": -19.9551343, "lon": -43.9587386, "tags": {"bus": "yes", "highway": "bus_stop", "public_transport": "platform"}}, {"type": "node", "id": 967975870, "lat": -19.946764, "lon": -43.9596952, "tags": {"bus": "yes", "highway": "bus_stop", "public_transport": "platform"}}, {"type": "node", "id": 967975873, "lat": -19.9471473, "lon": -43.9602675, "tags": {"bus": "yes", "highway": "bus_stop", "public_transport": "platform"}}, {"type": "node", "id": 967975874, "lat": -19.946163, "lon": -43.9600508, "tags": {"bus": "yes", "highway": "bus_stop", "public_transport": "platform"}}, {"type": "node", "id": 967975875, "lat": -19.9495423, "lon": -43.9614353, "tags": {"bus": "yes", "highway": "bus_stop", "public_transport": "platform"}}, {"type": "node", "id": 967975878, "lat": -19.9419836, "lon": -43.9540234, "tags": {"bus": "yes", "highway": "bus_stop", "public_transport": "platform"}}, {"type": "node", "id": 967975879, "lat": -19.9435031, "lon": -43.9566642, "tags": {"bus": "yes", "highway": "bus_stop", "public_transport": "platform"}}, {"type": "node", "id": 967975880, "lat": -19.9401799, "lon": -43.9597808, "tags": {"bus": "yes", "highway": "bus_stop", "public_transport": "platform"}}, {"type": "node", "id": 967975881, "lat": -19.9449469, "lon": -43.9569631, "tags": {"bus": "yes", "highway": "bus_stop", "public_transport": "platform"}}, {"type": "node", "id": 967975883, "lat": -19.9350224, "lon": -43.9528042, "tags": {"bus": "yes", "highway": "bus_stop", "public_transport": "platform"}}, {"type": "node", "id": 967975884, "lat": -19.9373345, "lon": -43.9536424, "tags": {"bus": "yes", "highway": "bus_stop", "public_transport": "platform"}}, {"type": "node", "id": 979996805, "lat": -19.9391199, "lon": -43.9192216, "tags": {"highway": "bus_stop"}}, {"type": "node", "id": 979996823, "lat": -19.9385471, "lon": -43.9203408, "tags": {"highway": "bus_stop"}}, {"type": "node", "id": 979996825, "lat": -19.9401363, "lon": -43.9200838, "tags": {"bus": "yes", "highway": "bus_stop", "public_transport": "platform"}}, {"type": "node", "id": 980000964, "lat": -19.9383324, "lon": -43.922631, "tags": {"highway": "bus_stop"}}, {"type": "node", "id": 981547978, "lat": -19.9321262, "lon": -43.9387969, "tags": {"bus": "yes", "highway": "bus_stop", "public_transport": "platform"}}, {"type": "node", "id": 990040333, "lat": -19.8610697, "lon": -43.9650706, "tags": {"bus": "yes", "highway": "bus_stop", "public_transport": "platform"}}, {"type": "node", "id": 990040334, "lat": -19.8611824, "lon": -43.964534, "tags": {"bus": "yes", "highway": "bus_stop", "public_transport": "platform"}}, {"type": "node", "id": 990040335, "lat": -19.8622938, "lon": -43.9686897, "tags": {"bus": "yes", "highway": "bus_stop", "public_transport": "platform"}}, {"type": "node", "id": 990040336, "lat": -19.8622938, "lon": -43.9677935, "tags": {"bus": "yes", "highway": "bus_stop", "public_transport": "platform"}}, {"type": "node", "id": 991045912, "lat": -19.9338436, "lon": -43.9280882, "tags": {"bus": "yes", "highway": "bus_stop", "public_transport": "platform"}}, {"type": "node", "id": 991045938, "lat": -19.9341916, "lon": -43.9279916, "tags": {"bus": "yes", "highway": "bus_stop", "public_transport": "platform"}}, {"type": "node", "id": 991685228, "lat": -19.9355083, "lon": -43.9224751, "tags": {"bus": "yes", "highway": "bus_stop", "public_transport": "platform"}}, {"type": "node", "id": 991685231, "lat": -19.9335006, "lon": -43.9235179, "tags": {"bus": "yes", "highway": "bus_stop", "public_transport": "platform"}}, {"type": "node", "id": 991685239, "lat": -19.9320539, "lon": -43.9249499, "tags": {"bus": "yes", "highway": "bus_stop", "name": "Get. Vargas com Aimor\u00e9s", "public_transport": "platform"}}, {"type": "node", "id": 995864148, "lat": -19.9352152, "lon": -43.9283806, "tags": {"bus": "yes", "highway": "bus_stop", "public_transport": "platform"}}, {"type": "node", "id": 995864149, "lat": -19.9319981, "lon": -43.9303251, "tags": {"bus": "yes", "highway": "bus_stop", "public_transport": "platform"}}, {"type": "node", "id": 995864152, "lat": -19.9375169, "lon": -43.9357832, "tags": {"bus": "yes", "highway": "bus_stop", "public_transport": "platform"}}, {"type": "node", "id": 995864163, "lat": -19.9382514, "lon": -43.9259993, "tags": {"bus": "yes", "highway": "bus_stop", "public_transport": "platform"}}, {"type": "node", "id": 995864165, "lat": -19.9325309, "lon": -43.9305419, "tags": {"bus": "yes", "highway": "bus_stop", "public_transport": "platform"}}, {"type": "node", "id": 995864166, "lat": -19.9375736, "lon": -43.9360529, "tags": {"bus": "yes", "highway": "bus_stop", "public_transport": "platform"}}, {"type": "node", "id": 995864167, "lat": -19.9394303, "lon": -43.9405109, "tags": {"bus": "yes", "highway": "bus_stop", "public_transport": "platform", "shelter": "yes"}}, {"type": "node", "id": 995864168, "lat": -19.9324484, "lon": -43.9241371, "tags": {"bus": "yes", "highway": "bus_stop", "public_transport": "platform"}}, {"type": "node", "id": 995864177, "lat": -19.9354215, "lon": -43.9286654, "tags": {"bus": "yes", "highway": "bus_stop", "public_transport": "platform"}}, {"type": "node", "id": 995864179, "lat": -19.9396565, "lon": -43.9379867, "tags": {"bus": "yes", "highway": "bus_stop", "public_transport": "platform", "wheelchair": "no"}}, {"type": "node", "id": 995864180, "lat": -19.9390867, "lon": -43.9351445, "tags": {"bench": "yes", "bus": "yes", "highway": "bus_stop", "public_transport": "platform", "shelter": "yes"}}, {"type": "node", "id": 995864181, "lat": -19.9391278, "lon": -43.9272128, "tags": {"bus": "yes", "highway": "bus_stop", "public_transport": "platform"}}, {"type": "node", "id": 995864185, "lat": -19.9398258, "lon": -43.9314572, "tags": {"bus": "yes", "highway": "bus_stop", "public_transport": "platform"}}, {"type": "node", "id": 995864188, "lat": -19.9335831, "lon": -43.9293676, "tags": {"bus": "yes", "highway": "bus_stop", "public_transport": "platform", "wheelchair": "no"}}, {"type": "node", "id": 995864190, "lat": -19.9397412, "lon": -43.9404081, "tags": {"bus": "yes", "highway": "bus_stop", "public_transport": "platform", "shelter": "yes"}}, {"type": "node", "id": 995864194, "lat": -19.9387671, "lon": -43.9349716, "tags": {"bus": "yes", "highway": "bus_stop", "public_transport": "platform"}}, {"type": "node", "id": 995864197, "lat": -19.9361502, "lon": -43.9254805, "tags": {"bus": "yes", "highway": "bus_stop", "public_transport": "platform"}}, {"type": "node", "id": 995864200, "lat": -19.94019, "lon": -43.9352855, "tags": {"bus": "yes", "highway": "bus_stop", "public_transport": "platform"}}, {"type": "node", "id": 995864204, "lat": -19.9385908, "lon": -43.9364744, "tags": {"bus": "yes", "highway": "bus_stop", "public_transport": "platform", "wheelchair": "no"}}, {"type": "node", "id": 995864206, "lat": -19.9376187, "lon": -43.9255203, "tags": {"bus": "yes", "highway": "bus_stop", "public_transport": "platform"}}, {"type": "node", "id": 995864211, "lat": -19.9394005, "lon": -43.9272612, "tags": {"bus": "yes", "highway": "bus_stop", "public_transport": "platform"}}, {"type": "node", "id": 995864213, "lat": -19.9364741, "lon": -43.9276274, "tags": {"bus": "yes", "highway": "bus_stop", "public_transport": "platform"}}, {"type": "node", "id": 995864219, "lat": -19.9394226, "lon": -43.9379759, "tags": {"bus": "yes", "highway": "bus_stop", "public_transport": "platform", "wheelchair": "no"}}, {"type": "node", "id": 995864220, "lat": -19.9364675, "lon": -43.9252314, "tags": {"bus": "yes", "highway": "bus_stop", "public_transport": "platform"}}, {"type": "node", "id": 995864222, "lat": -19.9395089, "lon": -43.9310607, "tags": {"bus": "yes", "highway": "bus_stop", "public_transport": "platform"}}, {"type": "node", "id": 995864224, "lat": -19.9365067, "lon": -43.9279732, "tags": {"bus": "yes", "highway": "bus_stop", "public_transport": "platform"}}, {"type": "node", "id": 995892425, "lat": -19.9299518, "lon": -43.9232109, "tags": {"bus": "yes", "highway": "bus_stop", "public_transport": "platform"}}, {"type": "node", "id": 995901896, "lat": -19.9237021, "lon": -43.9359418, "tags": {"bus": "yes", "highway": "bus_stop", "public_transport": "platform"}}, {"type": "node", "id": 995901902, "lat": -19.9184178, "lon": -43.9388668, "tags": {"highway": "bus_stop"}}, {"type": "node", "id": 995901904, "lat": -19.9183858, "lon": -43.9392558, "tags": {"bus": "yes", "highway": "bus_stop", "public_transport": "platform"}}, {"type": "node", "id": 995901907, "lat": -19.9236201, "lon": -43.9356144, "tags": {"bus": "yes", "highway": "bus_stop", "public_transport": "platform"}}, {"type": "node", "id": 995901908, "lat": -19.9197757, "lon": -43.9379425, "tags": {"bus": "yes", "highway": "bus_stop", "public_transport": "platform"}}, {"type": "node", "id": 995901909, "lat": -19.9222343, "lon": -43.9363175, "tags": {"bus": "yes", "highway": "bus_stop", "public_transport": "platform"}}, {"type": "node", "id": 995901916, "lat": -19.919792, "lon": -43.9383517, "tags": {"bus": "yes", "highway": "bus_stop", "public_transport": "platform"}}, {"type": "node", "id": 995901918, "lat": -19.9213964, "lon": -43.9374487, "tags": {"bus": "yes", "highway": "bus_stop", "public_transport": "platform"}}, {"type": "node", "id": 995901921, "lat": -19.9169204, "lon": -43.9401957, "tags": {"bus": "yes", "highway": "bus_stop", "public_transport": "platform", "shelter": "yes"}}, {"type": "node", "id": 995901922, "lat": -19.9257398, "lon": -43.9348577, "tags": {"bus": "yes", "highway": "bus_stop", "public_transport": "platform"}}, {"type": "node", "id": 995901923, "lat": -19.9229629, "lon": -43.9364368, "tags": {"bus": "yes", "highway": "bus_stop", "public_transport": "platform"}}, {"type": "node", "id": 995901927, "lat": -19.9168103, "lon": -43.9397995, "tags": {"highway": "bus_stop", "shelter": "yes"}}, {"type": "node", "id": 998836317, "lat": -19.9285973, "lon": -43.9236892, "tags": {"bus": "yes", "highway": "bus_stop", "public_transport": "platform"}}, {"type": "node", "id": 998836320, "lat": -19.9300047, "lon": -43.9231765, "tags": {"bus": "yes", "highway": "bus_stop", "public_transport": "platform"}}, {"type": "node", "id": 998836322, "lat": -19.9314109, "lon": -43.9234712, "tags": {"bus": "yes", "highway": "bus_stop", "public_transport": "platform"}}, {"type": "node", "id": 998836329, "lat": -19.9399683, "lon": -43.9257872, "tags": {"bus": "yes", "highway": "bus_stop", "public_transport": "platform"}}, {"type": "node", "id": 998836330, "lat": -19.929286, "lon": -43.9215811, "tags": {"bus": "yes", "highway": "bus_stop", "public_transport": "platform"}}, {"type": "node", "id": 998836332, "lat": -19.9297784, "lon": -43.9229054, "tags": {"bus": "yes", "highway": "bus_stop", "public_transport": "platform"}}, {"type": "node", "id": 998836334, "lat": -19.9275425, "lon": -43.9331085, "tags": {"bus": "yes", "highway": "bus_stop", "public_transport": "platform", "shelter": "yes"}}, {"type": "node", "id": 998836337, "lat": -19.9308415, "lon": -43.9235107, "tags": {"bus": "yes", "highway": "bus_stop", "public_transport": "platform"}}, {"type": "node", "id": 998836344, "lat": -19.9394096, "lon": -43.9257872, "tags": {"bus": "yes", "highway": "bus_stop", "public_transport": "platform"}}, {"type": "node", "id": 998836346, "lat": -19.9291297, "lon": -43.9326023, "tags": {"bus": "yes", "highway": "bus_stop", "public_transport": "platform", "shelter": "yes"}}, {"type": "node", "id": 998836348, "lat": -19.9293775, "lon": -43.9228017, "tags": {"bus": "yes", "highway": "bus_stop", "public_transport": "platform"}}, {"type": "node", "id": 998836349, "lat": -19.927617, "lon": -43.9335552, "tags": {"bus": "yes", "highway": "bus_stop", "name": "Subesta\u00e7\u00e3o Cemig", "public_transport": "platform", "shelter": "yes"}}, {"type": "node", "id": 998836356, "lat": -19.9296646, "lon": -43.9227844, "tags": {"bus": "yes", "highway": "bus_stop", "public_transport": "platform"}}, {"type": "node", "id": 998836358, "lat": -19.9334372, "lon": -43.9248046, "tags": {"bus": "yes", "highway": "bus_stop", "public_transport": "platform"}}, {"type": "node", "id": 998836360, "lat": -19.9289312, "lon": -43.9322823, "tags": {"bus": "yes", "highway": "bus_stop", "public_transport": "platform", "shelter": "yes"}}, {"type": "node", "id": 998858338, "lat": -19.9311622, "lon": -43.9272859, "tags": {"bus": "yes", "highway": "bus_stop", "public_transport": "platform"}}, {"type": "node", "id": 998858339, "lat": -19.9267546, "lon": -43.9419538, "tags": {"bus": "yes", "highway": "bus_stop", "public_transport": "platform", "shelter": "no"}}, {"type": "node", "id": 998858340, "lat": -19.9308294, "lon": -43.9468159, "tags": {"bus": "yes", "highway": "bus_stop", "public_transport": "platform"}}, {"type": "node", "id": 998858342, "lat": -19.9300448, "lon": -43.9571162, "tags": {"bus": "yes", "highway": "bus_stop", "public_transport": "platform"}}, {"type": "node", "id": 998858343, "lat": -19.9243362, "lon": -43.9379665, "tags": {"bus": "yes", "highway": "bus_stop", "public_transport": "platform"}}, {"type": "node", "id": 998858344, "lat": -19.93166, "lon": -43.9398707, "tags": {"bus": "yes", "highway": "bus_stop", "public_transport": "platform"}}, {"type": "node", "id": 998858345, "lat": -19.9289298, "lon": -43.938582, "tags": {"bus": "yes", "highway": "bus_stop", "public_transport": "platform"}}, {"type": "node", "id": 998858346, "lat": -19.9370854, "lon": -43.9451945, "tags": {"bus": "yes", "highway": "bus_stop", "public_transport": "platform"}}, {"type": "node", "id": 998858347, "lat": -19.9258265, "lon": -43.9259101, "tags": {"bus": "yes", "highway": "bus_stop", "public_transport": "platform"}}, {"type": "node", "id": 998858348, "lat": -19.9279006, "lon": -43.9422998, "tags": {"bus": "yes", "highway": "bus_stop", "public_transport": "platform"}}, {"type": "node", "id": 998858350, "lat": -19.9281541, "lon": -43.946365, "tags": {"bus": "yes", "departures_board": "yes", "highway": "bus_stop", "public_transport": "platform", "shelter": "yes"}}, {"type": "node", "id": 998858352, "lat": -19.9327989, "lon": -43.9547194, "tags": {"bus": "yes", "highway": "bus_stop", "public_transport": "platform"}}, {"type": "node", "id": 998858353, "lat": -19.9239875, "lon": -43.942835, "tags": {"bus": "yes", "highway": "bus_stop", "public_transport": "platform"}}, {"type": "node", "id": 998858354, "lat": -19.9271838, "lon": -43.9364922, "tags": {"bus": "yes", "highway": "bus_stop", "public_transport": "platform"}}, {"type": "node", "id": 998858355, "lat": -19.9376568, "lon": -43.9444701, "tags": {"bus": "yes", "highway": "bus_stop", "public_transport": "platform"}}, {"type": "node", "id": 998858356, "lat": -19.9253462, "lon": -43.9258181, "tags": {"bus": "yes", "highway": "bus_stop", "public_transport": "platform"}}, {"type": "node", "id": 998858357, "lat": -19.9242418, "lon": -43.9412474, "tags": {"bus": "yes", "highway": "bus_stop", "public_transport": "platform", "shelter": "no"}}, {"type": "node", "id": 998858358, "lat": -19.9282345, "lon": -43.946781, "tags": {"bus": "yes", "departures_board": "realtime", "highway": "bus_stop", "public_transport": "platform", "shelter": "yes"}}, {"type": "node", "id": 998858360, "lat": -19.9357043, "lon": -43.9404669, "tags": {"bus": "yes", "highway": "bus_stop", "public_transport": "platform"}}, {"type": "node", "id": 998858361, "lat": -19.9242668, "lon": -43.9393313, "tags": {"bus": "yes", "highway": "bus_stop", "public_transport": "platform"}}, {"type": "node", "id": 998858363, "lat": -19.9294765, "lon": -43.9411663, "tags": {"bus": "yes", "highway": "bus_stop", "public_transport": "platform"}}, {"type": "node", "id": 998858364, "lat": -19.9279556, "lon": -43.9366552, "tags": {"bus": "yes", "highway": "bus_stop", "public_transport": "platform"}}, {"type": "node", "id": 998858365, "lat": -19.9389427, "lon": -43.9435796, "tags": {"bus": "yes", "highway": "bus_stop", "public_transport": "platform"}}, {"type": "node", "id": 998858366, "lat": -19.9255017, "lon": -43.9416026, "tags": {"bus": "yes", "highway": "bus_stop", "public_transport": "platform", "shelter": "no"}}, {"type": "node", "id": 998858367, "lat": -19.9254817, "lon": -43.9451214, "tags": {"bus": "yes", "highway": "bus_stop", "public_transport": "platform"}}, {"type": "node", "id": 998858369, "lat": -19.929983, "lon": -43.9568407, "tags": {"bus": "yes", "highway": "bus_stop", "public_transport": "platform"}}, {"type": "node", "id": 998858370, "lat": -19.9321453, "lon": -43.9475814, "tags": {"bus": "yes", "departures_board": "realtime", "highway": "bus_stop", "name": "Oleg\u00e1rio Maciel, 2025", "public_transport": "platform", "shelter": "yes"}}, {"type": "node", "id": 998858371, "lat": -19.9304197, "lon": -43.9301058, "tags": {"bus": "yes", "highway": "bus_stop", "public_transport": "platform"}}, {"type": "node", "id": 998858373, "lat": -19.9313926, "lon": -43.9396633, "tags": {"bus": "yes", "highway": "bus_stop", "public_transport": "platform"}}, {"type": "node", "id": 998858374, "lat": -19.9276222, "lon": -43.9361445, "tags": {"bus": "yes", "highway": "bus_stop", "public_transport": "platform"}}, {"type": "node", "id": 998858375, "lat": -19.9388084, "lon": -43.9431047, "tags": {"bus": "yes", "highway": "bus_stop", "public_transport": "platform"}}, {"type": "node", "id": 998858376, "lat": -19.9274285, "lon": -43.9248667, "tags": {"bus": "yes", "highway": "bus_stop", "public_transport": "platform"}}, {"type": "node", "id": 998858378, "lat": -19.9246055, "lon": -43.9380075, "tags": {"bus": "yes", "highway": "bus_stop", "public_transport": "platform"}}, {"type": "node", "id": 998858379, "lat": -19.9269955, "lon": -43.9459974, "tags": {"bus": "yes", "highway": "bus_stop", "public_transport": "platform"}}, {"type": "node", "id": 998858380, "lat": -19.9316012, "lon": -43.9393572, "tags": {"bus": "yes", "highway": "bus_stop", "public_transport": "platform"}}, {"type": "node", "id": 998858381, "lat": -19.9318278, "lon": -43.9477821, "tags": {"bench": "yes", "bus": "yes", "departures_board": "realtime", "highway": "bus_stop", "public_transport": "platform", "shelter": "yes"}}, {"type": "node", "id": 998858383, "lat": -19.9222684, "lon": -43.9379798, "tags": {"bus": "yes", "highway": "bus_stop", "public_transport": "platform"}}, {"type": "node", "id": 998858384, "lat": -19.9269142, "lon": -43.9426863, "tags": {"bus": "yes", "highway": "bus_stop", "public_transport": "platform"}}, {"type": "node", "id": 998858385, "lat": -19.9258419, "lon": -43.9363687, "tags": {"bus": "yes", "highway": "bus_stop", "public_transport": "platform"}}, {"type": "node", "id": 998858386, "lat": -19.9335782, "lon": -43.9517447, "tags": {"bus": "yes", "highway": "bus_stop", "public_transport": "platform"}}, {"type": "node", "id": 998858388, "lat": -19.9218359, "lon": -43.9406233, "tags": {"bus": "yes", "highway": "bus_stop", "public_transport": "platform", "shelter": "no"}}, {"type": "node", "id": 998858389, "lat": -19.9277329, "lon": -43.9438794, "tags": {"bus": "yes", "highway": "bus_stop", "public_transport": "platform"}}, {"type": "node", "id": 998858390, "lat": -19.9330471, "lon": -43.9397736, "tags": {"bus": "yes", "highway": "bus_stop", "public_transport": "platform"}}, {"type": "node", "id": 998858391, "lat": -19.935365, "lon": -43.9475535, "tags": {"bus": "yes", "highway": "bus_stop", "public_transport": "platform"}}, {"type": "node", "id": 998858392, "lat": -19.9314356, "lon": -43.9259556, "tags": {"bus": "yes", "highway": "bus_stop", "public_transport": "platform"}}, {"type": "node", "id": 998858393, "lat": -19.9294697, "lon": -43.9407917, "tags": {"bus": "yes", "highway": "bus_stop", "public_transport": "platform"}}, {"type": "node", "id": 998858394, "lat": -19.9300906, "lon": -43.9448341, "tags": {"bus": "yes", "highway": "bus_stop", "public_transport": "platform", "shelter": "yes"}}, {"type": "node", "id": 998858396, "lat": -19.9337835, "lon": -43.9516001, "tags": {"bus": "yes", "highway": "bus_stop", "public_transport": "platform"}}, {"type": "node", "id": 998858397, "lat": -19.9240501, "lon": -43.9391607, "tags": {"bus": "yes", "highway": "bus_stop", "public_transport": "platform"}}, {"type": "node", "id": 998858398, "lat": -19.9297606, "lon": -43.9472366, "tags": {"bus": "yes", "highway": "bus_stop", "public_transport": "platform"}}, {"type": "node", "id": 998858399, "lat": -19.9292342, "lon": -43.9373929, "tags": {"bus": "yes", "highway": "bus_stop", "public_transport": "platform"}}, {"type": "node", "id": 998858400, "lat": -19.9350582, "lon": -43.9474859, "tags": {"bus": "yes", "highway": "bus_stop", "public_transport": "platform"}}, {"type": "node", "id": 998892893, "lat": -19.9235911, "lon": -43.9421555, "tags": {"bus": "yes", "highway": "bus_stop", "public_transport": "platform"}}, {"type": "node", "id": 998892896, "lat": -19.9196046, "lon": -43.944035, "tags": {"highway": "bus_stop", "wheelchair": "yes"}}, {"type": "node", "id": 998892899, "lat": -19.92502, "lon": -43.9281784, "tags": {"bus": "yes", "highway": "bus_stop", "public_transport": "platform"}}, {"type": "node", "id": 998892901, "lat": -19.9233418, "lon": -43.9421209, "tags": {"bus": "yes", "highway": "bus_stop", "public_transport": "platform"}}, {"type": "node", "id": 998892902, "lat": -19.9171032, "lon": -43.9437899, "tags": {"highway": "bus_stop", "wheelchair": "yes"}}, {"type": "node", "id": 998892903, "lat": -19.9250926, "lon": -43.9292015, "tags": {"bus": "yes", "highway": "bus_stop", "public_transport": "platform"}}, {"type": "node", "id": 998892906, "lat": -19.9216952, "lon": -43.9421483, "tags": {"bus": "yes", "highway": "bus_stop", "public_transport": "platform"}}, {"type": "node", "id": 998892907, "lat": -19.9183981, "lon": -43.943686, "tags": {"highway": "bus_stop", "wheelchair": "yes"}}, {"type": "node", "id": 998892927, "lat": -19.9195728, "lon": -43.9444402, "tags": {"bus": "yes", "highway": "bus_stop", "public_transport": "platform", "wheelchair": "yes"}}, {"type": "node", "id": 998892929, "lat": -19.9237303, "lon": -43.9439355, "tags": {"bus": "yes", "highway": "bus_stop", "public_transport": "platform"}}, {"type": "node", "id": 998892930, "lat": -19.9158947, "lon": -43.9434411, "tags": {"highway": "bus_stop", "wheelchair": "yes"}}, {"type": "node", "id": 998892931, "lat": -19.9206946, "lon": -43.9447329, "tags": {"highway": "bus_stop"}}, {"type": "node", "id": 998892933, "lat": -19.9181389, "lon": -43.9411725, "tags": {"bus": "yes", "highway": "bus_stop", "public_transport": "platform"}}, {"type": "node", "id": 998892934, "lat": -19.9171303, "lon": -43.9433432, "tags": {"highway": "bus_stop", "wheelchair": "no"}}, {"type": "node", "id": 998892937, "lat": -19.926481, "lon": -43.9317049, "tags": {"bus": "yes", "highway": "bus_stop", "public_transport": "platform"}}, {"type": "node", "id": 998892938, "lat": -19.9204003, "lon": -43.9418389, "tags": {"bus": "yes", "highway": "bus_stop", "public_transport": "platform"}}, {"type": "node", "id": 998892941, "lat": -19.9183346, "lon": -43.9441138, "tags": {"highway": "bus_stop", "wheelchair": "yes"}}, {"type": "node", "id": 998892943, "lat": -19.9260951, "lon": -43.9303662, "tags": {"bus": "yes", "highway": "bus_stop", "public_transport": "platform"}}, {"type": "node", "id": 998892946, "lat": -19.9159164, "lon": -43.9431037, "tags": {"bus": "yes", "highway": "bus_stop", "public_transport": "platform", "wheelchair": "yes"}}, {"type": "node", "id": 998912904, "lat": -19.9248807, "lon": -43.9493195, "tags": {"bus": "yes", "highway": "bus_stop", "public_transport": "platform"}}, {"type": "node", "id": 998912905, "lat": -19.9285368, "lon": -43.9559558, "tags": {"bus": "yes", "highway": "bus_stop", "public_transport": "platform"}}, {"type": "node", "id": 998912906, "lat": -19.9257092, "lon": -43.9508769, "tags": {"bus": "yes", "highway": "bus_stop", "public_transport": "platform"}}, {"type": "node", "id": 998912909, "lat": -19.9279934, "lon": -43.9540526, "tags": {"bus": "yes", "highway": "bus_stop", "public_transport": "platform"}}, {"type": "node", "id": 998912911, "lat": -19.9243315, "lon": -43.94756, "tags": {"bus": "yes", "highway": "bus_stop", "public_transport": "platform"}}, {"type": "node", "id": 998912913, "lat": -19.9269036, "lon": -43.9526997, "tags": {"bus": "yes", "highway": "bus_stop", "public_transport": "platform"}}, {"type": "node", "id": 998912915, "lat": -19.9287942, "lon": -43.9555524, "tags": {"bus": "yes", "highway": "bus_stop", "public_transport": "platform"}}, {"type": "node", "id": 998912916, "lat": -19.9239115, "lon": -43.9476464, "tags": {"bus": "yes", "highway": "bus_stop", "public_transport": "platform"}}, {"type": "node", "id": 998912918, "lat": -19.9260135, "lon": -43.9506096, "tags": {"bus": "yes", "highway": "bus_stop", "public_transport": "platform"}}, {"type": "node", "id": 998912919, "lat": -19.9278339, "lon": -43.9544204, "tags": {"bus": "yes", "highway": "bus_stop", "public_transport": "platform"}}, {"type": "node", "id": 998912921, "lat": -19.9252255, "lon": -43.9490873, "tags": {"bus": "yes", "highway": "bus_stop", "public_transport": "platform"}}, {"type": "node", "id": 998912924, "lat": -19.9270614, "lon": -43.9525791, "tags": {"bus": "yes", "highway": "bus_stop", "public_transport": "platform"}}, {"type": "node", "id": 1000464456, "lat": -19.9193895, "lon": -43.939356, "tags": {"bus": "yes", "highway": "bus_stop", "public_transport": "platform"}}, {"type": "node", "id": 1000464458, "lat": -19.9208622, "lon": -43.9369332, "tags": {"bus": "yes", "highway": "bus_stop", "public_transport": "platform"}}, {"type": "node", "id": 1000464462, "lat": -19.9202282, "lon": -43.9396996, "tags": {"highway": "bus_stop"}}, {"type": "node", "id": 1000464465, "lat": -19.9205533, "lon": -43.9383279, "tags": {"bus": "yes", "highway": "bus_stop", "public_transport": "platform"}}, {"type": "node", "id": 1000464468, "lat": -19.9203439, "lon": -43.941242, "tags": {"bench": "yes", "bus": "yes", "highway": "bus_stop", "name": "Edif\u00edcio Levy", "network": "BHTRANS", "public_transport": "platform", "shelter": "yes"}}, {"type": "node", "id": 1000464470, "lat": -19.9207461, "lon": -43.9409381, "tags": {"bus": "yes", "highway": "bus_stop", "public_transport": "platform"}}, {"type": "node", "id": 1000464471, "lat": -19.918566, "lon": -43.9381465, "tags": {"bus": "yes", "highway": "bus_stop", "public_transport": "platform"}}, {"type": "node", "id": 1000464475, "lat": -19.9197188, "lon": -43.939374, "tags": {"bus": "yes", "highway": "bus_stop", "public_transport": "platform", "shelter": "no"}}, {"type": "node", "id": 1000464476, "lat": -19.9187776, "lon": -43.9375724, "tags": {"bus": "yes", "highway": "bus_stop", "public_transport": "platform"}}, {"type": "node", "id": 1004294065, "lat": -19.9249219, "lon": -43.9227242, "tags": {"bus": "yes", "highway": "bus_stop", "public_transport": "platform"}}, {"type": "node", "id": 1004294108, "lat": -19.9248796, "lon": -43.9193171, "tags": {"bus": "yes", "highway": "bus_stop", "public_transport": "platform"}}, {"type": "node", "id": 1004294118, "lat": -19.9248131, "lon": -43.9229367, "tags": {"bus": "yes", "highway": "bus_stop", "public_transport": "platform"}}, {"type": "node", "id": 1004294121, "lat": -19.9245473, "lon": -43.9194635, "tags": {"bus": "yes", "highway": "bus_stop", "public_transport": "platform"}}, {"type": "node", "id": 1004294128, "lat": -19.9246812, "lon": -43.9216434, "tags": {"bus": "yes", "highway": "bus_stop", "public_transport": "platform"}}, {"type": "node", "id": 1004294159, "lat": -19.9235809, "lon": -43.9201737, "tags": {"bench": "yes", "bin": "yes", "bus": "yes", "departures_board": "realtime", "highway": "bus_stop", "lit": "yes", "operator": "BHTrans", "public_transport": "platform", "shelter": "yes", "wheelchair": "limited"}}, {"type": "node", "id": 1005752279, "lat": -19.9229796, "lon": -43.9276544, "tags": {"bus": "yes", "highway": "bus_stop", "public_transport": "platform"}}, {"type": "node", "id": 1005752286, "lat": -19.9234667, "lon": -43.927457, "tags": {"bus": "yes", "highway": "bus_stop", "public_transport": "platform"}}, {"type": "node", "id": 1005752293, "lat": -19.9236677, "lon": -43.9264455, "tags": {"bus": "yes", "highway": "bus_stop", "public_transport": "platform"}}, {"type": "node", "id": 1005874846, "lat": -19.9272093, "lon": -43.9273035, "tags": {"bus": "yes", "highway": "bus_stop", "public_transport": "platform"}}, {"type": "node", "id": 1011903015, "lat": -19.9361098, "lon": -43.9243587, "tags": {"bus": "yes", "highway": "bus_stop", "public_transport": "platform"}}, {"type": "node", "id": 1011903019, "lat": -19.9401382, "lon": -43.9223932, "tags": {"bus": "yes", "highway": "bus_stop", "public_transport": "platform"}}, {"type": "node", "id": 1011940849, "lat": -19.9417035, "lon": -43.9243438, "tags": {"bus": "yes", "highway": "bus_stop", "public_transport": "platform"}}, {"type": "node", "id": 1011940851, "lat": -19.9427079, "lon": -43.9236932, "tags": {"bus": "yes", "highway": "bus_stop", "public_transport": "platform"}}, {"type": "node", "id": 1011940852, "lat": -19.945325, "lon": -43.9219896, "tags": {"highway": "bus_stop"}}, {"type": "node", "id": 1011940853, "lat": -19.9415477, "lon": -43.9248985, "tags": {"bus": "yes", "highway": "bus_stop", "public_transport": "platform"}}, {"type": "node", "id": 1011940854, "lat": -19.943122, "lon": -43.9239743, "tags": {"bus": "yes", "highway": "bus_stop", "public_transport": "platform"}}, {"type": "node", "id": 1011940855, "lat": -19.9463056, "lon": -43.9219257, "tags": {"highway": "bus_stop"}}, {"type": "node", "id": 1011941285, "lat": -19.9470769, "lon": -43.9180701, "tags": {"highway": "bus_stop"}}, {"type": "node", "id": 1011941286, "lat": -19.9466053, "lon": -43.9177395, "tags": {"highway": "bus_stop"}}, {"type": "node", "id": 1011941287, "lat": -19.9483567, "lon": -43.9181425, "tags": {"bus": "yes", "highway": "bus_stop", "public_transport": "platform"}}, {"type": "node", "id": 1053778098, "lat": -19.9374376, "lon": -43.9185376, "tags": {"highway": "bus_stop", "name": "Chefe Pereira"}}, {"type": "node", "id": 1053778113, "lat": -19.9362138, "lon": -43.9185581, "tags": {"bus": "yes", "highway": "bus_stop", "public_transport": "platform"}}, {"type": "node", "id": 1053778114, "lat": -19.94006, "lon": -43.9192513, "tags": {"highway": "bus_stop", "name": "Chefe Pereira"}}, {"type": "node", "id": 1053778118, "lat": -19.9376375, "lon": -43.9214699, "tags": {"bus": "yes", "highway": "bus_stop", "public_transport": "platform"}}, {"type": "node", "id": 1053778121, "lat": -19.9349435, "lon": -43.9219619, "tags": {"bus": "yes", "highway": "bus_stop", "public_transport": "platform"}}, {"type": "node", "id": 1056966103, "lat": -19.9348018, "lon": -43.92333, "tags": {"bus": "yes", "highway": "bus_stop", "public_transport": "platform"}}, {"type": "node", "id": 1063917365, "lat": -19.9379785, "lon": -43.9348699, "tags": {"bus": "yes", "highway": "bus_stop", "public_transport": "platform"}}, {"type": "node", "id": 1063917366, "lat": -19.9356893, "lon": -43.9313129, "tags": {"bus": "yes", "highway": "bus_stop", "public_transport": "platform", "wheelchair": "no"}}, {"type": "node", "id": 1063917370, "lat": -19.9360777, "lon": -43.9314757, "tags": {"bus": "yes", "highway": "bus_stop", "public_transport": "platform", "wheelchair": "no"}}, {"type": "node", "id": 1063917371, "lat": -19.9371607, "lon": -43.9339432, "tags": {"bus": "yes", "highway": "bus_stop", "public_transport": "platform"}}, {"type": "node", "id": 1063917373, "lat": -19.936346, "lon": -43.9308185, "tags": {"bus": "yes", "highway": "bus_stop", "public_transport": "platform", "wheelchair": "no"}}, {"type": "node", "id": 1071036718, "lat": -19.941159, "lon": -43.9322669, "tags": {"bus": "yes", "highway": "bus_stop", "public_transport": "platform"}}, {"type": "node", "id": 1082978133, "lat": -19.9211395, "lon": -43.9486889, "tags": {"bus": "yes", "highway": "bus_stop", "public_transport": "platform"}}, {"type": "node", "id": 1083015230, "lat": -19.922654, "lon": -43.923723, "tags": {"bus": "yes", "highway": "bus_stop", "public_transport": "platform"}}, {"type": "node", "id": 1087100146, "lat": -19.9382253, "lon": -43.9312784, "tags": {"bus": "yes", "highway": "bus_stop", "public_transport": "platform"}}, {"type": "node", "id": 1097319910, "lat": -19.9313979, "lon": -43.9592785, "tags": {"bus": "yes", "highway": "bus_stop", "public_transport": "platform"}}, {"type": "node", "id": 1113912274, "lat": -19.9520424, "lon": -43.9240162, "tags": {"bus": "yes", "highway": "bus_stop", "public_transport": "platform"}}, {"type": "node", "id": 1113912279, "lat": -19.9482835, "lon": -43.926543, "tags": {"bus": "yes", "highway": "bus_stop", "public_transport": "platform"}}, {"type": "node", "id": 1113912290, "lat": -19.9511196, "lon": -43.9222296, "tags": {"amenity": "bus_station", "highway": "bus_stop"}}, {"type": "node", "id": 1120447047, "lat": -19.9457332, "lon": -43.9336078, "tags": {"bus": "yes", "highway": "bus_stop", "public_transport": "platform"}}, {"type": "node", "id": 1120447053, "lat": -19.9534292, "lon": -43.9294041, "tags": {"highway": "bus_stop"}}, {"type": "node", "id": 1120447055, "lat": -19.9429386, "lon": -43.9328112, "tags": {"bus": "yes", "highway": "bus_stop", "public_transport": "platform"}}, {"type": "node", "id": 1120447057, "lat": -19.9486481, "lon": -43.9309092, "tags": {"bus": "yes", "highway": "bus_stop", "public_transport": "platform"}}, {"type": "node", "id": 1120447071, "lat": -19.9511265, "lon": -43.9303805, "tags": {"bus": "yes", "highway": "bus_stop", "public_transport": "platform"}}, {"type": "node", "id": 1120447074, "lat": -19.9470182, "lon": -43.930804, "tags": {"bus": "yes", "highway": "bus_stop", "public_transport": "platform"}}, {"type": "node", "id": 1120447087, "lat": -19.9496313, "lon": -43.9309532, "tags": {"highway": "bus_stop"}}, {"type": "node", "id": 1121730246, "lat": -19.943614, "lon": -43.9333875, "tags": {"highway": "bus_stop"}}, {"type": "node", "id": 1121730247, "lat": -19.9468439, "lon": -43.9273531, "tags": {"bus": "yes", "highway": "bus_stop", "public_transport": "platform"}}, {"type": "node", "id": 1121730248, "lat": -19.9519553, "lon": -43.9229206, "tags": {"highway": "bus_stop"}}, {"type": "node", "id": 1121730249, "lat": -19.9464446, "lon": -43.925636, "tags": {"bus": "yes", "highway": "bus_stop", "public_transport": "platform"}}, {"type": "node", "id": 1123482275, "lat": -19.9632768, "lon": -43.9399176, "tags": {"highway": "bus_stop", "shelter": "yes"}}, {"type": "node", "id": 1123482281, "lat": -19.9987818, "lon": -43.9702437, "tags": {"highway": "bus_stop"}}, {"type": "node", "id": 1123482290, "lat": -20.0005547, "lon": -43.9687264, "tags": {"highway": "bus_stop"}}, {"type": "node", "id": 1123482301, "lat": -19.9593621, "lon": -43.9434065, "tags": {"bus": "yes", "highway": "bus_stop", "public_transport": "platform", "shelter": "yes"}}, {"type": "node", "id": 1123482305, "lat": -19.9945269, "lon": -43.961959, "tags": {"highway": "bus_stop"}}, {"type": "node", "id": 1123482306, "lat": -19.934635, "lon": -43.9283381, "tags": {"bus": "yes", "highway": "bus_stop", "public_transport": "platform"}}, {"type": "node", "id": 1123482309, "lat": -19.9569379, "lon": -43.9412482, "tags": {"bus": "yes", "highway": "bus_stop", "public_transport": "platform"}}, {"type": "node", "id": 1123482310, "lat": -20.0001845, "lon": -43.9697759, "tags": {"highway": "bus_stop"}}, {"type": "node", "id": 1123482317, "lat": -19.9626754, "lon": -43.9412036, "tags": {"highway": "bus_stop", "shelter": "yes"}}, {"type": "node", "id": 1123482321, "lat": -19.9945269, "lon": -43.9618439, "tags": {"highway": "bus_stop"}}, {"type": "node", "id": 1123482337, "lat": -19.9995743, "lon": -43.9701545, "tags": {"highway": "bus_stop"}}, {"type": "node", "id": 1181074479, "lat": -19.9673054, "lon": -43.9622397, "tags": {"highway": "bus_stop"}}, {"type": "node", "id": 1181074512, "lat": -19.9686448, "lon": -43.9646242, "tags": {"highway": "bus_stop"}}, {"type": "node", "id": 1181074513, "lat": -19.9664856, "lon": -43.9611255, "tags": {"highway": "bus_stop"}}, {"type": "node", "id": 1181074521, "lat": -19.9683776, "lon": -43.9644957, "tags": {"bus": "yes", "highway": "bus_stop", "public_transport": "platform"}}, {"type": "node", "id": 1181074553, "lat": -19.9702235, "lon": -43.9646561, "tags": {"highway": "bus_stop"}}, {"type": "node", "id": 1236846837, "lat": -19.8742902, "lon": -43.9844905, "tags": {"highway": "bus_stop"}}, {"type": "node", "id": 1236846838, "lat": -19.874576, "lon": -43.9843576, "tags": {"highway": "bus_stop"}}, {"type": "node", "id": 1241079931, "lat": -19.9399463, "lon": -43.9351961, "tags": {"bus": "yes", "highway": "bus_stop", "public_transport": "platform"}}, {"type": "node", "id": 1241079943, "lat": -19.9401483, "lon": -43.9369735, "tags": {"bus": "yes", "highway": "bus_stop", "public_transport": "platform", "wheelchair": "no"}}, {"type": "node", "id": 1243162890, "lat": -19.926678, "lon": -43.937914, "tags": {"bus": "yes", "highway": "bus_stop", "public_transport": "platform"}}, {"type": "node", "id": 1262111512, "lat": -19.913759, "lon": -43.9398409, "tags": {"bus": "yes", "highway": "bus_stop", "name": "Final 3832 - Nova Lima", "public_transport": "platform"}}, {"type": "node", "id": 1262111514, "lat": -19.9135834, "lon": -43.9393666, "tags": {"highway": "bus_stop", "shelter": "yes"}}, {"type": "node", "id": 1262111515, "lat": -19.9136558, "lon": -43.9392552, "tags": {"highway": "bus_stop", "shelter": "yes"}}, {"type": "node", "id": 1262111517, "lat": -19.9135815, "lon": -43.9395753, "tags": {"bus": "yes", "highway": "bus_stop", "public_transport": "platform", "shelter": "yes"}}, {"type": "node", "id": 1262111518, "lat": -19.9136349, "lon": -43.9391093, "tags": {"highway": "bus_stop", "shelter": "yes"}}, {"type": "node", "id": 1268796062, "lat": -19.9656157, "lon": -43.9824646, "tags": {"bench": "no", "highway": "bus_stop", "name": "Ponto Inicial/Final - S20", "shelter": "no"}}, {"type": "node", "id": 1268819630, "lat": -19.9661932, "lon": -43.9834412, "tags": {"bench": "no", "highway": "bus_stop", "shelter": "no"}}, {"type": "node", "id": 1268841791, "lat": -19.9669591, "lon": -43.9844421, "tags": {"bench": "no", "highway": "bus_stop", "shelter": "no"}}, {"type": "node", "id": 1269993863, "lat": -19.9635302, "lon": -43.9822248, "tags": {"highway": "bus_stop"}}, {"type": "node", "id": 1269993864, "lat": -19.9636501, "lon": -43.9820488, "tags": {"highway": "bus_stop"}}, {"type": "node", "id": 1270005357, "lat": -19.9620413, "lon": -43.9819743, "tags": {"highway": "bus_stop"}}, {"type": "node", "id": 1270005358, "lat": -19.9622559, "lon": -43.9821072, "tags": {"highway": "bus_stop"}}, {"type": "node", "id": 1270005364, "lat": -19.964268, "lon": -43.9849652, "tags": {"highway": "bus_stop"}}, {"type": "node", "id": 1270005368, "lat": -19.9658598, "lon": -43.9870804, "tags": {"highway": "bus_stop"}}, {"type": "node", "id": 1270005371, "lat": -19.9655682, "lon": -43.9878714, "tags": {"highway": "bus_stop", "name": "Final 1404B"}}, {"type": "node", "id": 1270005378, "lat": -19.9635927, "lon": -43.985771, "tags": {"highway": "bus_stop"}}, {"type": "node", "id": 1270005398, "lat": -19.9574376, "lon": -43.9863733, "tags": {"bus": "yes", "highway": "bus_stop", "public_transport": "platform"}}, {"type": "node", "id": 1270005404, "lat": -19.9575335, "lon": -43.9862497, "tags": {"bus": "yes", "highway": "bus_stop", "public_transport": "platform"}}, {"type": "node", "id": 1270005408, "lat": -19.9600683, "lon": -43.9829634, "tags": {"highway": "bus_stop"}}, {"type": "node", "id": 1270005409, "lat": -19.9604293, "lon": -43.9830467, "tags": {"highway": "bus_stop"}}, {"type": "node", "id": 1275900630, "lat": -19.9701727, "lon": -43.9845969, "tags": {"highway": "bus_stop"}}, {"type": "node", "id": 1275900631, "lat": -19.9683836, "lon": -43.9880778, "tags": {"highway": "bus_stop"}}, {"type": "node", "id": 1277822862, "lat": -19.9349644, "lon": -43.9251202, "tags": {"bus": "yes", "highway": "bus_stop", "public_transport": "platform"}}, {"type": "node", "id": 1277822864, "lat": -19.9364059, "lon": -43.9240025, "tags": {"bus": "yes", "highway": "bus_stop", "public_transport": "platform"}}, {"type": "node", "id": 1283125776, "lat": -19.9103316, "lon": -43.9665328, "tags": {"bench": "yes", "bus": "yes", "highway": "bus_stop", "public_transport": "platform", "source": "Bing;survey"}}, {"type": "node", "id": 1283125877, "lat": -19.9099919, "lon": -43.9655444, "tags": {"bus": "yes", "highway": "bus_stop", "public_transport": "platform", "source": "Bing;survey"}}, {"type": "node", "id": 1283438851, "lat": -19.8196258, "lon": -43.9972108, "tags": {"highway": "bus_stop"}}, {"type": "node", "id": 1311235369, "lat": -19.9393597, "lon": -43.9461546, "tags": {"bus": "yes", "highway": "bus_stop", "public_transport": "platform"}}, {"type": "node", "id": 1314560090, "lat": -19.9213043, "lon": -43.9141404, "tags": {"highway": "bus_stop"}}, {"type": "node", "id": 1315186063, "lat": -19.9274159, "lon": -43.9199977, "tags": {"bus": "yes", "highway": "bus_stop", "public_transport": "platform"}}, {"type": "node", "id": 1327722386, "lat": -19.9478753, "lon": -43.9481046, "tags": {"bench": "yes", "bus": "yes", "highway": "bus_stop", "public_transport": "platform", "shelter": "yes"}}, {"type": "node", "id": 1337813976, "lat": -19.9568627, "lon": -43.9416136, "tags": {"bus": "yes", "highway": "bus_stop", "public_transport": "platform", "shelter": "yes"}}, {"type": "node", "id": 1338132345, "lat": -19.9686803, "lon": -43.9473125, "tags": {"bus": "yes", "highway": "bus_stop", "public_transport": "platform"}}, {"type": "node", "id": 1338397299, "lat": -19.91902, "lon": -43.941256, "tags": {"bus": "yes", "highway": "bus_stop", "public_transport": "platform"}}, {"type": "node", "id": 1342749718, "lat": -19.9231145, "lon": -43.9363291, "tags": {"bus": "yes", "highway": "bus_stop", "public_transport": "platform"}}, {"type": "node", "id": 1354257565, "lat": -19.9333005, "lon": -43.920627, "tags": {"bus": "yes", "highway": "bus_stop", "public_transport": "platform"}}, {"type": "node", "id": 1382127217, "lat": -19.9364724, "lon": -43.9594451, "tags": {"bus": "yes", "highway": "bus_stop", "local_ref": "Pra\u00e7a Leonado Gutierrez", "public_transport": "platform"}}, {"type": "node", "id": 1402780052, "lat": -19.929288, "lon": -43.93084, "tags": {"bus": "yes", "highway": "bus_stop", "public_transport": "platform"}}, {"type": "node", "id": 1402781531, "lat": -19.92951, "lon": -43.930756, "tags": {"bus": "yes", "highway": "bus_stop", "public_transport": "platform"}}, {"type": "node", "id": 1456307498, "lat": -19.930404, "lon": -43.930372, "tags": {"bus": "yes", "highway": "bus_stop", "public_transport": "platform"}}, {"type": "node", "id": 1487179602, "lat": -19.9215511, "lon": -43.9443252, "tags": {"highway": "bus_stop"}}, {"type": "node", "id": 1529991345, "lat": -19.9309676, "lon": -43.9555667, "tags": {"bus": "yes", "highway": "bus_stop", "public_transport": "platform"}}, {"type": "node", "id": 1529991360, "lat": -19.9315169, "lon": -43.9555936, "tags": {"bus": "yes", "highway": "bus_stop", "public_transport": "platform"}}, {"type": "node", "id": 1557090409, "lat": -19.9251197, "lon": -43.9178005, "tags": {"bus": "yes", "highway": "bus_stop", "public_transport": "platform"}}, {"type": "node", "id": 1567120160, "lat": -19.9144895, "lon": -43.9284978, "tags": {"bus": "yes", "highway": "bus_stop", "public_transport": "platform"}}, {"type": "node", "id": 1568015911, "lat": -19.9194858, "lon": -43.939572, "tags": {"highway": "bus_stop"}}, {"type": "node", "id": 1569211824, "lat": -19.9279873, "lon": -43.9294999, "tags": {"bus": "yes", "highway": "bus_stop", "public_transport": "platform"}}, {"type": "node", "id": 1594729199, "lat": -19.9394674, "lon": -43.9181409, "tags": {"bus": "yes", "highway": "bus_stop", "public_transport": "platform"}}, {"type": "node", "id": 1594729200, "lat": -19.93954, "lon": -43.9171666, "tags": {"highway": "bus_stop"}}, {"type": "node", "id": 1651813513, "lat": -19.9147111, "lon": -43.9401254, "tags": {"highway": "bus_stop", "shelter": "no"}}, {"type": "node", "id": 1668155058, "lat": -19.9190357, "lon": -43.9749893, "tags": {"bus": "yes", "highway": "bus_stop", "public_transport": "platform"}}, {"type": "node", "id": 1668155529, "lat": -19.9137728, "lon": -43.9745896, "tags": {"highway": "bus_stop"}}, {"type": "node", "id": 1668678631, "lat": -19.9087751, "lon": -43.9581654, "tags": {"bus": "yes", "highway": "bus_stop", "public_transport": "platform"}}, {"type": "node", "id": 1668725250, "lat": -19.9038697, "lon": -43.9645033, "tags": {"bus": "yes", "highway": "bus_stop", "public_transport": "platform"}}, {"type": "node", "id": 1668725605, "lat": -19.9055241, "lon": -43.9636665, "tags": {"bus": "yes", "highway": "bus_stop", "public_transport": "platform"}}, {"type": "node", "id": 1668726094, "lat": -19.9068204, "lon": -43.962717, "tags": {"bus": "yes", "highway": "bus_stop", "public_transport": "platform"}}, {"type": "node", "id": 1668726387, "lat": -19.9066388, "lon": -43.9602923, "tags": {"bus": "yes", "highway": "bus_stop", "public_transport": "platform"}}, {"type": "node", "id": 1669454172, "lat": -19.9191298, "lon": -43.9729208, "tags": {"bus": "yes", "highway": "bus_stop", "public_transport": "platform"}}, {"type": "node", "id": 1674958234, "lat": -19.8915042, "lon": -43.9668791, "tags": {"bus": "yes", "highway": "bus_stop", "public_transport": "platform"}}, {"type": "node", "id": 1674958236, "lat": -19.8940215, "lon": -43.9683925, "tags": {"bus": "yes", "highway": "bus_stop", "name:pt": "Linha 4201", "public_transport": "platform"}}, {"type": "node", "id": 1674958248, "lat": -19.8976384, "lon": -43.9689658, "tags": {"highway": "bus_stop", "name": "4032-4150", "name:pt": "4032-4150"}}, {"type": "node", "id": 1674958254, "lat": -19.899843, "lon": -43.9684339, "tags": {"description": "4107-4032-4201-4150", "description:pt": "4107-4032-4201-4150", "highway": "bus_stop"}}, {"type": "node", "id": 1674958261, "lat": -19.9008232, "lon": -43.9692651, "tags": {"highway": "bus_stop", "name": "4107-4201-4150", "name:pt": "4107-4201-4150"}}, {"type": "node", "id": 1687190643, "lat": -19.9201245, "lon": -43.9376129, "tags": {"bus": "yes", "highway": "bus_stop", "public_transport": "platform"}}, {"type": "node", "id": 1687190648, "lat": -19.9345381, "lon": -43.9376559, "tags": {"bench": "yes", "bus": "yes", "highway": "bus_stop", "public_transport": "platform", "shelter": "yes"}}, {"type": "node", "id": 1695289861, "lat": -19.8917459, "lon": -44.0098074, "tags": {"bus": "yes", "highway": "bus_stop", "public_transport": "platform"}}, {"type": "node", "id": 1695289863, "lat": -19.889789, "lon": -44.0121598, "tags": {"bus": "yes", "highway": "bus_stop", "public_transport": "platform"}}, {"type": "node", "id": 1695289866, "lat": -19.8896503, "lon": -44.0122752, "tags": {"bus": "yes", "highway": "bus_stop", "public_transport": "platform"}}, {"type": "node", "id": 1701805800, "lat": -19.8512481, "lon": -43.9566225, "tags": {"bench": "yes", "bus": "yes", "highway": "bus_stop", "public_transport": "platform", "shelter": "yes"}}, {"type": "node", "id": 1705246103, "lat": -19.9063501, "lon": -43.9653122, "tags": {"bus": "yes", "highway": "bus_stop", "public_transport": "platform"}}, {"type": "node", "id": 1705246105, "lat": -19.9063654, "lon": -43.9675261, "tags": {"highway": "bus_stop", "source": "survey"}}, {"type": "node", "id": 1705246106, "lat": -19.9063774, "lon": -43.9689997, "tags": {"highway": "bus_stop", "source": "survey"}}, {"type": "node", "id": 1705246116, "lat": -19.9063472, "lon": -43.9699946, "tags": {"bus": "yes", "highway": "bus_stop", "public_transport": "stop_position", "source": "survey"}}, {"type": "node", "id": 1705246118, "lat": -19.9063865, "lon": -43.973028, "tags": {"bus": "yes", "description": "9403-4150", "highway": "bus_stop", "public_transport": "stop_position", "source": "survey"}}, {"type": "node", "id": 1726096580, "lat": -19.9071431, "lon": -43.9810855, "tags": {"highway": "bus_stop"}}, {"type": "node", "id": 1832012871, "lat": -19.9772543, "lon": -44.0048355, "tags": {"highway": "bus_stop"}}, {"type": "node", "id": 1832012872, "lat": -19.9756031, "lon": -44.0132871, "tags": {"highway": "bus_stop"}}, {"type": "node", "id": 1832012873, "lat": -19.9756964, "lon": -44.0143815, "tags": {"highway": "bus_stop"}}, {"type": "node", "id": 1846265645, "lat": -19.8885082, "lon": -44.0126699, "tags": {"bus": "yes", "highway": "bus_stop", "public_transport": "platform"}}, {"type": "node", "id": 1853013947, "lat": -19.9458999, "lon": -43.928547, "tags": {"bus": "yes", "highway": "bus_stop", "public_transport": "platform"}}, {"type": "node", "id": 1934230104, "lat": -19.9676616, "lon": -43.9813774, "tags": {"addr:city": "Belo Horizonte", "addr:housenumber": "1342", "addr:street": "Avenida Dom Jo\u00e3o VI", "highway": "bus_stop", "public_transport": "platform"}}, {"type": "node", "id": 1934240406, "lat": -19.9705325, "lon": -43.9797941, "tags": {"addr:city": "Belo Horizonte", "addr:housenumber": "1651", "addr:street": "Avenida Dom Jo\u00e3o VI", "highway": "bus_stop", "public_transport": "platform"}}, {"type": "node", "id": 1934240411, "lat": -19.9706005, "lon": -43.9798772, "tags": {"addr:city": "Belo Horizonte", "addr:housenumber": "1670", "addr:street": "Avenida Dom Jo\u00e3o VI", "highway": "bus_stop", "public_transport": "platform"}}, {"type": "node", "id": 1934240415, "lat": -19.9678741, "lon": -43.98113, "tags": {"addr:city": "Belo Horizonte", "addr:housenumber": "1371", "addr:street": "Avenida Dom Jo\u00e3o VI", "highway": "bus_stop", "public_transport": "platform"}}, {"type": "node", "id": 1934240418, "lat": -19.976067, "lon": -43.9775717, "tags": {"highway": "bus_stop", "public_transport": "platform"}}, {"type": "node", "id": 1934240421, "lat": -19.9729734, "lon": -43.9785485, "tags": {"addr:city": "Belo Horizonte", "addr:housenumber": "1880", "addr:street": "Avenida Dom Jo\u00e3o VI", "highway": "bus_stop", "public_transport": "platform"}}, {"type": "node", "id": 1934240444, "lat": -19.9766108, "lon": -43.9765173, "tags": {"highway": "bus_stop", "public_transport": "platform"}}, {"type": "node", "id": 1934240450, "lat": -19.9694364, "lon": -43.9807123, "tags": {"addr:city": "Belo Horizonte", "addr:housenumber": "1511", "addr:street": "Avenida Dom Jo\u00e3o VI", "highway": "bus_stop", "public_transport": "platform"}}, {"type": "node", "id": 1934240453, "lat": -19.9734909, "lon": -43.9779828, "tags": {"addr:housenumber": "1995", "addr:street": "Avenida Dom Jo\u00e3o VI", "highway": "bus_stop", "noname": "yes", "public_transport": "platform", "shelter": "no"}}, {"type": "node", "id": 1934240460, "lat": -19.9714884, "lon": -43.9788938, "tags": {"highway": "bus_stop", "public_transport": "platform"}}, {"type": "node", "id": 1934240464, "lat": -19.9731025, "lon": -43.978868, "tags": {"highway": "bus_stop", "public_transport": "platform"}}, {"type": "node", "id": 1934240468, "lat": -19.9658611, "lon": -43.9816636, "tags": {"addr:city": "Belo Horizonte", "addr:housenumber": "1181", "addr:street": "Avenida Dom Jo\u00e3o VI", "highway": "bus_stop", "public_transport": "platform"}}, {"type": "node", "id": 1934240472, "lat": -19.9714683, "lon": -43.9791003, "tags": {"addr:city": "Belo Horizonte", "addr:housenumber": "1760", "addr:street": "Avenida Dom Jo\u00e3o VI", "highway": "bus_stop", "public_transport": "platform"}}, {"type": "node", "id": 1934240476, "lat": -19.965846, "lon": -43.9818191, "tags": {"addr:city": "Belo Horizonte", "addr:housenumber": "1190", "addr:street": "Avenida Dom Jo\u00e3o VI", "highway": "bus_stop", "public_transport": "platform"}}, {"type": "node", "id": 1934240480, "lat": -19.9736444, "lon": -43.9777292, "tags": {"highway": "bus_stop", "noname": "yes", "public_transport": "platform", "shelter": "no"}}, {"type": "node", "id": 1936752486, "lat": -19.9542722, "lon": -43.9500365, "tags": {"bus": "yes", "highway": "bus_stop", "public_transport": "platform"}}, {"type": "node", "id": 1936752489, "lat": -19.9762988, "lon": -43.9712168, "tags": {"highway": "bus_stop", "public_transport": "platform"}}, {"type": "node", "id": 1936752493, "lat": -19.9758476, "lon": -43.9687143, "tags": {"bus": "yes", "highway": "bus_stop", "public_transport": "platform"}}, {"type": "node", "id": 1936752494, "lat": -19.9397578, "lon": -43.9484647, "tags": {"bus": "yes", "highway": "bus_stop", "public_transport": "platform"}}, {"type": "node", "id": 1936752495, "lat": -19.9402039, "lon": -43.9479701, "tags": {"bus": "yes", "highway": "bus_stop", "public_transport": "platform"}}, {"type": "node", "id": 1936752500, "lat": -19.9694672, "lon": -43.9557834, "tags": {"highway": "bus_stop"}}, {"type": "node", "id": 1936752505, "lat": -19.960273, "lon": -43.9573605, "tags": {"bus": "yes", "highway": "bus_stop", "public_transport": "platform"}}, {"type": "node", "id": 1936752510, "lat": -19.9584931, "lon": -43.9566873, "tags": {"bus": "yes", "highway": "bus_stop", "public_transport": "platform"}}, {"type": "node", "id": 1936752512, "lat": -19.9571795, "lon": -43.952865, "tags": {"bus": "yes", "highway": "bus_stop", "public_transport": "platform"}}, {"type": "node", "id": 1936752514, "lat": -19.9543772, "lon": -43.9532638, "tags": {"bus": "yes", "highway": "bus_stop", "public_transport": "platform"}}, {"type": "node", "id": 1936752516, "lat": -19.9548137, "lon": -43.9522343, "tags": {"bus": "yes", "highway": "bus_stop", "public_transport": "platform"}}, {"type": "node", "id": 1936752519, "lat": -19.9521806, "lon": -43.9479876, "tags": {"bus": "yes", "highway": "bus_stop", "public_transport": "platform"}}, {"type": "node", "id": 1936752527, "lat": -19.9449814, "lon": -43.9490422, "tags": {"bus": "yes", "highway": "bus_stop", "public_transport": "platform"}}, {"type": "node", "id": 1936752528, "lat": -19.9692479, "lon": -43.980905, "tags": {"addr:city": "Belo Horizonte", "addr:housenumber": "1512", "addr:street": "Avenida Dom Jo\u00e3o VI", "highway": "bus_stop", "public_transport": "platform"}}, {"type": "node", "id": 1936752530, "lat": -19.9758948, "lon": -43.9777308, "tags": {"highway": "bus_stop", "public_transport": "platform"}}, {"type": "node", "id": 1936752533, "lat": -19.9764551, "lon": -43.9732097, "tags": {"highway": "bus_stop", "public_transport": "platform"}}, {"type": "node", "id": 1936752540, "lat": -19.9726511, "lon": -43.9672901, "tags": {"bus": "yes", "highway": "bus_stop", "public_transport": "platform"}}, {"type": "node", "id": 1936752544, "lat": -19.9710049, "lon": -43.9656278, "tags": {"bus": "yes", "highway": "bus_stop", "public_transport": "platform"}}, {"type": "node", "id": 1936752557, "lat": -19.9695126, "lon": -43.9636128, "tags": {"highway": "bus_stop"}}, {"type": "node", "id": 1936752558, "lat": -19.9696437, "lon": -43.9586882, "tags": {"highway": "bus_stop"}}, {"type": "node", "id": 1980250200, "lat": -19.984329, "lon": -44.0346355, "tags": {"bus": "yes", "highway": "bus_stop", "public_transport": "platform"}}, {"type": "node", "id": 1980250204, "lat": -19.979681, "lon": -44.0280799, "tags": {"highway": "bus_stop"}}, {"type": "node", "id": 1980250205, "lat": -19.9796179, "lon": -44.0281523, "tags": {"highway": "bus_stop"}}, {"type": "node", "id": 1980250208, "lat": -19.9842382, "lon": -44.0347778, "tags": {"bus": "yes", "highway": "bus_stop", "public_transport": "platform"}}, {"type": "node", "id": 1980250228, "lat": -19.9824285, "lon": -44.0311832, "tags": {"highway": "bus_stop"}}, {"type": "node", "id": 1980254294, "lat": -19.9750381, "lon": -44.0158388, "tags": {"highway": "bus_stop", "shelter": "yes"}}, {"type": "node", "id": 1980254296, "lat": -19.9763383, "lon": -44.0167562, "tags": {"highway": "bus_stop"}}, {"type": "node", "id": 2038415190, "lat": -19.8735905, "lon": -43.9668965, "tags": {"bus": "yes", "highway": "bus_stop", "public_transport": "platform", "source": "survey"}}, {"type": "node", "id": 2038415211, "lat": -19.874386, "lon": -43.9677939, "tags": {"bus": "yes", "highway": "bus_stop", "public_transport": "platform", "source": "survey"}}, {"type": "node", "id": 2061925229, "lat": -19.838871, "lon": -44.0198165, "tags": {"highway": "bus_stop"}}, {"type": "node", "id": 2079173111, "lat": -19.9374686, "lon": -43.9659406, "tags": {"bus": "yes", "highway": "bus_stop", "name": "Santa Cruz, 670", "public_transport": "platform"}}, {"type": "node", "id": 2079182661, "lat": -19.9310463, "lon": -43.9466904, "tags": {"bus": "yes", "highway": "bus_stop", "name": "\u00c1lvares Cabral, 1365", "public_transport": "platform"}}, {"type": "node", "id": 2079192670, "lat": -19.9456152, "lon": -43.9236609, "tags": {"bus": "yes", "highway": "bus_stop", "name": "Cabo Verde, 147", "public_transport": "platform"}}, {"type": "node", "id": 2079193239, "lat": -19.9471935, "lon": -43.9232452, "tags": {"highway": "bus_stop", "name": "Cabo Verde, 313"}}, {"type": "node", "id": 2175096464, "lat": -19.933105, "lon": -43.9349025, "tags": {"bus": "yes", "highway": "bus_stop", "public_transport": "platform"}}, {"type": "node", "id": 2315430425, "lat": -19.9211791, "lon": -43.9370907, "tags": {"bus": "yes", "highway": "bus_stop", "public_transport": "platform"}}, {"type": "node", "id": 2327763855, "lat": -19.8683316, "lon": -43.9854638, "tags": {"highway": "bus_stop"}}, {"type": "node", "id": 2327763862, "lat": -19.8682885, "lon": -43.9855744, "tags": {"highway": "bus_stop"}}, {"type": "node", "id": 2364705418, "lat": -19.9128013, "lon": -43.9733389, "tags": {"highway": "bus_stop"}}, {"type": "node", "id": 2376688263, "lat": -19.9409094, "lon": -43.9293558, "tags": {"bus": "yes", "highway": "bus_stop", "public_transport": "platform"}}, {"type": "node", "id": 2403078259, "lat": -19.8831695, "lon": -43.9079038, "tags": {"highway": "bus_stop", "shelter": "no"}}, {"type": "node", "id": 2403078260, "lat": -19.8841781, "lon": -43.9069303, "tags": {"highway": "bus_stop", "shelter": "no"}}, {"type": "node", "id": 2403078263, "lat": -19.886326, "lon": -43.9060123, "tags": {"highway": "bus_stop"}}, {"type": "node", "id": 2403078264, "lat": -19.8879704, "lon": -43.9057169, "tags": {"highway": "bus_stop", "shelter": "yes"}}, {"type": "node", "id": 2403078265, "lat": -19.8896576, "lon": -43.9059865, "tags": {"highway": "bus_stop", "shelter": "no"}}, {"type": "node", "id": 2403078266, "lat": -19.8909384, "lon": -43.9068232, "tags": {"highway": "bus_stop", "shelter": "yes"}}, {"type": "node", "id": 2403078267, "lat": -19.8919601, "lon": -43.9079077, "tags": {"highway": "bus_stop", "shelter": "yes"}}, {"type": "node", "id": 2403078268, "lat": -19.8934646, "lon": -43.9098448, "tags": {"highway": "bus_stop", "shelter": "yes"}}, {"type": "node", "id": 2403078269, "lat": -19.8935392, "lon": -43.9096306, "tags": {"highway": "bus_stop", "shelter": "no"}}, {"type": "node", "id": 2403078270, "lat": -19.8924281, "lon": -43.9080842, "tags": {"highway": "bus_stop"}}, {"type": "node", "id": 2479484400, "lat": -19.9068487, "lon": -43.977327, "tags": {"bus": "yes", "highway": "bus_stop", "name": "9405", "name:en": "4150", "public_transport": "platform"}}, {"type": "node", "id": 2486699059, "lat": -19.9333202, "lon": -43.9960757, "tags": {"highway": "bus_stop"}}, {"type": "node", "id": 2486699061, "lat": -19.932423, "lon": -43.995077, "tags": {"highway": "bus_stop"}}, {"type": "node", "id": 2506432988, "lat": -19.903481, "lon": -43.965739, "tags": {"bus": "yes", "highway": "bus_stop", "public_transport": "platform", "source": "survey"}}, {"type": "node", "id": 2521471035, "lat": -19.9060489, "lon": -43.9767131, "tags": {"bus": "yes", "highway": "bus_stop", "public_transport": "stop_position"}}, {"type": "node", "id": 2564780808, "lat": -19.8598521, "lon": -43.9189843, "tags": {"highway": "bus_stop"}}, {"type": "node", "id": 2712860426, "lat": -19.9206365, "lon": -43.997457, "tags": {"highway": "bus_stop"}}, {"type": "node", "id": 2712860475, "lat": -19.9211139, "lon": -43.9966353, "tags": {"highway": "bus_stop"}}, {"type": "node", "id": 2908404361, "lat": -19.8720764, "lon": -43.9788858, "tags": {"bus": "yes", "highway": "bus_stop", "public_transport": "platform"}}, {"type": "node", "id": 2988477305, "lat": -19.939896, "lon": -43.9477614, "tags": {"bus": "yes", "highway": "bus_stop", "public_transport": "platform"}}, {"type": "node", "id": 3174731003, "lat": -19.9126916, "lon": -43.9774905, "tags": {"bus": "yes", "highway": "bus_stop", "public_transport": "stop_position"}}, {"type": "node", "id": 3202158930, "lat": -19.8672394, "lon": -43.9636644, "tags": {"bus": "yes", "highway": "bus_stop", "public_transport": "platform"}}, {"type": "node", "id": 3209840649, "lat": -19.9396898, "lon": -43.9127832, "tags": {"highway": "bus_stop", "name": "Ponto Final 2102 - Serra"}}, {"type": "node", "id": 3209840650, "lat": -19.9398635, "lon": -43.9127641, "tags": {"bus": "yes", "highway": "bus_stop", "name": "Ponto Final 2151 - Serra", "public_transport": "platform"}}, {"type": "node", "id": 3209840651, "lat": -19.940079, "lon": -43.9127099, "tags": {"highway": "bus_stop", "name": "Ponto Final 4102 - Serra"}}, {"type": "node", "id": 3209840652, "lat": -19.9397108, "lon": -43.9100759, "tags": {"highway": "bus_stop", "name": "Ponto Final 4107 - Serra"}}, {"type": "node", "id": 3209840653, "lat": -19.9431856, "lon": -43.9141725, "tags": {"highway": "bus_stop", "name": "Ponto Final 9106 - Serra"}}, {"type": "node", "id": 3265738040, "lat": -19.9219062, "lon": -43.9719326, "tags": {"bus": "yes", "highway": "bus_stop", "public_transport": "platform", "shelter": "yes"}}, {"type": "node", "id": 3277831853, "lat": -19.861372, "lon": -43.9501848, "tags": {"bus": "yes", "highway": "bus_stop", "name": "Izabel Bueno 970 - Supermercado BH", "public_transport": "platform", "shelter": "no", "tactile_paving": "yes"}}, {"type": "node", "id": 3305699967, "lat": -19.9498069, "lon": -43.9196902, "tags": {"highway": "bus_stop"}}, {"type": "node", "id": 3322298378, "lat": -19.9101075, "lon": -43.9823941, "tags": {"highway": "bus_stop"}}, {"type": "node", "id": 3618530380, "lat": -19.8597771, "lon": -43.8912608, "tags": {"bench": "yes", "bus": "yes", "covered": "no", "highway": "bus_stop", "name": "Avenida Magenta, 113", "public_transport": "platform", "shelter": "yes", "wheelchair": "limited"}}, {"type": "node", "id": 3619687954, "lat": -19.8602175, "lon": -43.8912643, "tags": {"bench": "yes", "bus": "yes", "highway": "bus_stop", "name": "AVENIDA MAGENTA, 110", "public_transport": "platform", "shelter": "yes"}}, {"type": "node", "id": 3619981541, "lat": -19.8642462, "lon": -43.927755, "tags": {"highway": "bus_stop", "name": "83D", "wheelchair": "yes"}}, {"type": "node", "id": 3700274582, "lat": -19.8801935, "lon": -43.9131303, "tags": {"highway": "bus_stop"}}, {"type": "node", "id": 3825144825, "lat": -19.8626278, "lon": -43.8938026, "tags": {"bench": "no", "covered": "no", "highway": "bus_stop", "shelter": "no"}}, {"type": "node", "id": 3825144826, "lat": -19.8595699, "lon": -43.8932243, "tags": {"bench": "no", "covered": "no", "highway": "bus_stop", "shelter": "no"}}, {"type": "node", "id": 3825144827, "lat": -19.8593758, "lon": -43.8933322, "tags": {"bench": "no", "bus": "yes", "covered": "no", "highway": "bus_stop", "name": "Rua Ab\u00edlio Alves dos Santos, 25", "public_transport": "platform", "shelter": "no"}}, {"type": "node", "id": 3825144828, "lat": -19.8591381, "lon": -43.8924695, "tags": {"bench": "no", "bus": "yes", "covered": "no", "highway": "bus_stop", "public_transport": "platform", "shelter": "no"}}, {"type": "node", "id": 3825144829, "lat": -19.8592251, "lon": -43.8925219, "tags": {"bench": "no", "bus": "yes", "covered": "no", "highway": "bus_stop", "name": "Avenida Magenta", "public_transport": "platform", "shelter": "no"}}, {"type": "node", "id": 3825144830, "lat": -19.8584829, "lon": -43.8926864, "tags": {"bus": "yes", "highway": "bus_stop", "public_transport": "platform"}}, {"type": "node", "id": 3825144832, "lat": -19.8622175, "lon": -43.890154, "tags": {"bench": "yes", "bus": "yes", "covered": "yes", "highway": "bus_stop", "name": "Avenida Magenta, 485", "public_transport": "platform", "shelter": "yes"}}, {"type": "node", "id": 3825144833, "lat": -19.8624505, "lon": -43.8901823, "tags": {"bench": "no", "bus": "yes", "covered": "no", "highway": "bus_stop", "name": "Avenida Magenta, 900", "public_transport": "platform", "shelter": "no"}}, {"type": "node", "id": 4100749289, "lat": -19.8773358, "lon": -43.9573138, "tags": {"bus": "yes", "highway": "bus_stop", "name": "Gardenia", "public_transport": "platform"}}, {"type": "node", "id": 4158627303, "lat": -19.8911913, "lon": -43.996219, "tags": {"bus": "yes", "highway": "bus_stop", "public_transport": "platform"}}, {"type": "node", "id": 4176799513, "lat": -19.9791667, "lon": -43.9844101, "tags": {"bench": "no", "highway": "bus_stop", "shelter": "no", "source": "DigitalGlobe Standart;Bing"}}, {"type": "node", "id": 4286029399, "lat": -19.8614853, "lon": -43.8883356, "tags": {"highway": "bus_stop", "name": "Avenida Magenta, 750"}}, {"type": "node", "id": 4286029400, "lat": -19.8613754, "lon": -43.8884276, "tags": {"highway": "bus_stop", "name": "Avenida Magenta, 719"}}, {"type": "node", "id": 4286029401, "lat": -19.8608726, "lon": -43.8856092, "tags": {"highway": "bus_stop", "name": "Avenida Magenta, 990"}}, {"type": "node", "id": 4286029402, "lat": -19.8607804, "lon": -43.8857353, "tags": {"highway": "bus_stop", "name": "Avenida Magenta, 1041"}}, {"type": "node", "id": 4286029403, "lat": -19.8619399, "lon": -43.8842456, "tags": {"highway": "bus_stop", "name": "Rua Marrom, 605"}}, {"type": "node", "id": 4286029405, "lat": -19.8618477, "lon": -43.8823496, "tags": {"highway": "bus_stop", "name": "Rua Marrom, 715"}}, {"type": "node", "id": 4286029406, "lat": -19.8620111, "lon": -43.8824338, "tags": {"highway": "bus_stop"}}, {"type": "node", "id": 4286029407, "lat": -19.8624011, "lon": -43.8814062, "tags": {"highway": "bus_stop", "name": "Rua Jose Flausino, 1023"}}, {"type": "node", "id": 4286029410, "lat": -19.8616984, "lon": -43.8777263, "tags": {"highway": "bus_stop", "name": "Rua Jose Flausino, 1500"}}, {"type": "node", "id": 4286029411, "lat": -19.8610922, "lon": -43.8772359, "tags": {"highway": "bus_stop", "name": "Rua Jairo Brito Dos Santos, 730"}}, {"type": "node", "id": 4286029412, "lat": -19.8603104, "lon": -43.8759563, "tags": {"highway": "bus_stop", "name": "Rua Jairo Brito Dos Santos, 690"}}, {"type": "node", "id": 4286029413, "lat": -19.8604642, "lon": -43.875891, "tags": {"highway": "bus_stop", "name": "Rua Jairo Brito Dos Santos, 615"}}, {"type": "node", "id": 4286029414, "lat": -19.8596692, "lon": -43.8752558, "tags": {"highway": "bus_stop", "name": "Rua Jairo Brito Dos Santos, 464"}}, {"type": "node", "id": 4286029415, "lat": -19.8594232, "lon": -43.8750037, "tags": {"highway": "bus_stop", "name": "Rua Jairo Brito Dos Santos, 455"}}, {"type": "node", "id": 4286029416, "lat": -19.8585535, "lon": -43.874957, "tags": {"highway": "bus_stop", "name": "Rua Jairo Brito Dos Santos, 342"}}, {"type": "node", "id": 4286029417, "lat": -19.8584789, "lon": -43.8748262, "tags": {"highway": "bus_stop", "name": "Rua Jairo Brito Dos Santos, 335"}}, {"type": "node", "id": 4286029418, "lat": -19.8584525, "lon": -43.8739155, "tags": {"highway": "bus_stop", "name": "Rua Soldado Mario Neto, 26"}}, {"type": "node", "id": 4286029419, "lat": -19.8578156, "lon": -43.87449, "tags": {"highway": "bus_stop", "name": "Rua Francisco Assis De Freitas, 45"}}, {"type": "node", "id": 4286029420, "lat": -19.857939, "lon": -43.8737265, "tags": {"highway": "bus_stop", "name": "Rua Francisco Assis De Freitas, 90"}}, {"type": "node", "id": 4286037826, "lat": -19.8600833, "lon": -43.8837654, "tags": {"highway": "bus_stop", "name": "Avenida Magenta, 1230"}}, {"type": "node", "id": 4286037827, "lat": -19.8601634, "lon": -43.8841975, "tags": {"highway": "bus_stop", "name": "Avenida Magenta, 1101"}}, {"type": "node", "id": 4286037828, "lat": -19.8595203, "lon": -43.8826222, "tags": {"highway": "bus_stop", "name": "Rua Henriqueta Lisboa, 124"}}, {"type": "node", "id": 4286037829, "lat": -19.8594044, "lon": -43.8827023, "tags": {"highway": "bus_stop", "name": "Rua Henriqueta Lisboa, 125"}}, {"type": "node", "id": 4286037830, "lat": -19.8606539, "lon": -43.8816728, "tags": {"highway": "bus_stop", "name": "Rua Jose Flausino, 900"}}, {"type": "node", "id": 4286037831, "lat": -19.8606951, "lon": -43.8815187, "tags": {"highway": "bus_stop", "name": "Rua Jose Flausino, 905"}}, {"type": "node", "id": 4286037832, "lat": -19.8588529, "lon": -43.8809614, "tags": {"highway": "bus_stop", "name": "Rua Jose Flausino, 515"}}, {"type": "node", "id": 4286037833, "lat": -19.8588988, "lon": -43.8810549, "tags": {"highway": "bus_stop", "name": "Rua Jose Flausino, 525"}}, {"type": "node", "id": 4286037834, "lat": -19.8590059, "lon": -43.8813964, "tags": {"highway": "bus_stop", "name": "Rua Henriqueta Lisboa, 83"}}, {"type": "node", "id": 4286037836, "lat": -19.858937, "lon": -43.881807, "tags": {"highway": "bus_stop", "name": "Rua Milton Dias, 194"}}, {"type": "node", "id": 4286037837, "lat": -19.8586426, "lon": -43.8821729, "tags": {"highway": "bus_stop", "name": "Rua Helio Natale, 103"}}, {"type": "node", "id": 4286037838, "lat": -19.8585394, "lon": -43.8822298, "tags": {"highway": "bus_stop", "name": "Rua Helio Natale, 58"}}, {"type": "node", "id": 4286037839, "lat": -19.8585967, "lon": -43.8725865, "tags": {"highway": "bus_stop", "name": "Rua Soldado Mario Neto, 242"}}, {"type": "node", "id": 4286037840, "lat": -19.8573196, "lon": -43.8718547, "tags": {"highway": "bus_stop", "name": "Rua Lourdes Gol\u00e7alves Barbosa, 155"}}, {"type": "node", "id": 4286037841, "lat": -19.8572928, "lon": -43.8719441, "tags": {"highway": "bus_stop", "name": "Rua Lourdes Gol\u00e7alves Barbosa,"}}, {"type": "node", "id": 4286037842, "lat": -19.8567575, "lon": -43.8708831, "tags": {"highway": "bus_stop", "name": "Rua Soldado Izair Barbosa, 260"}}, {"type": "node", "id": 4286037843, "lat": -19.8566581, "lon": -43.8710172, "tags": {"highway": "bus_stop", "name": "Rua Soldado Izair Barbosa, 259"}}, {"type": "node", "id": 4286037844, "lat": -19.8576752, "lon": -43.8706025, "tags": {"highway": "bus_stop", "name": "Rua Cabo Airton Braga, 91"}}, {"type": "node", "id": 4286037845, "lat": -19.8576484, "lon": -43.8707123, "tags": {"highway": "bus_stop", "name": "Rua Cabo Airton Braga, 90"}}, {"type": "node", "id": 4286037846, "lat": -19.8591741, "lon": -43.8706554, "tags": {"highway": "bus_stop", "name": "Rua Cabo Airton Braga, 271"}}, {"type": "node", "id": 4286037847, "lat": -19.8591359, "lon": -43.870757, "tags": {"highway": "bus_stop", "name": "Rua Cabo Airton Braga, 270"}}, {"type": "node", "id": 4286037848, "lat": -19.8605621, "lon": -43.8723019, "tags": {"highway": "bus_stop", "name": "Rua Pallas Athena, 495"}}, {"type": "node", "id": 4286037849, "lat": -19.8554573, "lon": -43.8748569, "tags": {"highway": "bus_stop", "name": "Rua Augusta Sacchetto Scalzo, 1"}}, {"type": "node", "id": 4286037850, "lat": -19.8517124, "lon": -43.8774121, "tags": {"highway": "bus_stop", "name": "Rua Augusta Sacchetto Scalzo, 22"}}, {"type": "node", "id": 4286037851, "lat": -19.8511574, "lon": -43.878147, "tags": {"highway": "bus_stop", "name": "Rua Augusta Sacchetto Scalzo, 3"}}, {"type": "node", "id": 4286037852, "lat": -19.8500978, "lon": -43.8800246, "tags": {"highway": "bus_stop", "name": "Rua Augusta Sacchetto Scalzo, 5"}}, {"type": "node", "id": 4286037853, "lat": -19.8503602, "lon": -43.8804537, "tags": {"highway": "bus_stop", "name": "Rua Maria De Lurdes De Pinho, 45"}}, {"type": "node", "id": 4286037854, "lat": -19.8504712, "lon": -43.8805127, "tags": {"highway": "bus_stop", "name": "Rua Maria De Lurdes De Pinho, 42"}}, {"type": "node", "id": 4286060540, "lat": -19.851551, "lon": -43.8798583, "tags": {"highway": "bus_stop", "name": "Rua Josefino Pinto, 67"}}, {"type": "node", "id": 4286060541, "lat": -19.8518133, "lon": -43.8797778, "tags": {"highway": "bus_stop", "name": "Rua Josefino Pinto, 66"}}, {"type": "node", "id": 4286060542, "lat": -19.8526206, "lon": -43.8799548, "tags": {"highway": "bus_stop", "name": "Rua Januario Borges, 399"}}, {"type": "node", "id": 4286060543, "lat": -19.8526358, "lon": -43.8803464, "tags": {"highway": "bus_stop", "name": "Rua Januario Borges, 360"}}, {"type": "node", "id": 4286060544, "lat": -19.8528289, "lon": -43.8799498, "tags": {"highway": "bus_stop", "name": "Rua Januario Borges, 430"}}, {"type": "node", "id": 4286060545, "lat": -19.8526509, "lon": -43.87797, "tags": {"highway": "bus_stop", "name": "Rua Januario Borges, 519"}}, {"type": "node", "id": 4286060546, "lat": -19.853216, "lon": -43.8815159, "tags": {"highway": "bus_stop", "name": "Rua Januario Borges, 132"}}, {"type": "node", "id": 4286060547, "lat": -19.8531101, "lon": -43.8816178, "tags": {"highway": "bus_stop", "name": "Rua Januario Borges, 135"}}, {"type": "node", "id": 4286060548, "lat": -19.8538467, "lon": -43.8831413, "tags": {"highway": "bus_stop", "name": "Rua Januario Borges, 26"}}, {"type": "node", "id": 4286060549, "lat": -19.8538215, "lon": -43.8834846, "tags": {"highway": "bus_stop", "name": "Rua Abilio Fernandes De Oliveira, 84"}}, {"type": "node", "id": 4286060550, "lat": -19.8540435, "lon": -43.8832486, "tags": {"highway": "bus_stop", "name": "Rua Jose Flausino, 23"}}, {"type": "node", "id": 4286060551, "lat": -19.8541999, "lon": -43.8833559, "tags": {"highway": "bus_stop", "name": "Rua Jose Flausino, 12"}}, {"type": "node", "id": 4286060552, "lat": -19.8548558, "lon": -43.8823688, "tags": {"highway": "bus_stop", "name": "Rua Geraldo Ferreira Da Gloria, 1320"}}, {"type": "node", "id": 4286060553, "lat": -19.8557438, "lon": -43.8824761, "tags": {"highway": "bus_stop", "name": "Rua Jose Flausino, 79"}}, {"type": "node", "id": 4286060554, "lat": -19.8558094, "lon": -43.8826102, "tags": {"highway": "bus_stop", "name": "Rua Jose Flausino, 100"}}, {"type": "node", "id": 4286060555, "lat": -19.8559759, "lon": -43.8816661, "tags": {"highway": "bus_stop", "name": "Rua Geraldo Ferreira Da Gloria, 1520"}}, {"type": "node", "id": 4286060556, "lat": -19.8569737, "lon": -43.8825641, "tags": {"highway": "bus_stop", "name": "Rua Milton Dia, 39"}}, {"type": "node", "id": 4286060557, "lat": -19.8570342, "lon": -43.8828002, "tags": {"highway": "bus_stop", "name": "Rua Milton Dia, 48"}}, {"type": "node", "id": 4286060558, "lat": -19.85768, "lon": -43.883122, "tags": {"highway": "bus_stop", "name": "Rua Arnaldo Louren\u00e7o, 37"}}, {"type": "node", "id": 4286060559, "lat": -19.8574984, "lon": -43.883283, "tags": {"highway": "bus_stop", "name": "Rua Arnaldo Louren\u00e7o, 60"}}, {"type": "node", "id": 4286060560, "lat": -19.8579121, "lon": -43.8848172, "tags": {"highway": "bus_stop", "name": "Rua Arnaldo Louren\u00e7o, 538"}}, {"type": "node", "id": 4286060562, "lat": -19.8577406, "lon": -43.8849781, "tags": {"highway": "bus_stop", "name": "Rua Arnaldo Louren\u00e7o, 541"}}, {"type": "node", "id": 4286060563, "lat": -19.858235, "lon": -43.8859008, "tags": {"highway": "bus_stop", "name": "Rua Arnaldo Louren\u00e7o, 401"}}, {"type": "node", "id": 4286060564, "lat": -19.8587646, "lon": -43.8876711, "tags": {"highway": "bus_stop", "name": "Rua Arnaldo Louren\u00e7o, 211"}}, {"type": "node", "id": 4286060565, "lat": -19.8588119, "lon": -43.887769, "tags": {"highway": "bus_stop", "name": "Rua Arnaldo Louren\u00e7o, 240"}}, {"type": "node", "id": 4286060566, "lat": -19.8577216, "lon": -43.8888655, "tags": {"highway": "bus_stop", "name": "Rua Americo Alves Sardinha, 110"}}, {"type": "node", "id": 4286060567, "lat": -19.8576183, "lon": -43.8889729, "tags": {"highway": "bus_stop", "name": "Rua Americo Alves Sardinha, 105"}}, {"type": "node", "id": 4286060568, "lat": -19.8576645, "lon": -43.8900727, "tags": {"highway": "bus_stop", "name": "Rua Caetano Vasconcellos, 20"}}, {"type": "node", "id": 4286060569, "lat": -19.857682, "lon": -43.8901638, "tags": {"highway": "bus_stop", "name": "Rua Caetano Vasconcellos, 9"}}, {"type": "node", "id": 4286060570, "lat": -19.8557801, "lon": -43.8893605, "tags": {"bus": "yes", "highway": "bus_stop", "name": "Rua Exaltino Marques Andrade, 230", "public_transport": "platform"}}, {"type": "node", "id": 4286060572, "lat": -19.8554332, "lon": -43.8893208, "tags": {"bus": "yes", "highway": "bus_stop", "name": "Rua Paulo Pinheiro Chagas, 61", "public_transport": "platform"}}, {"type": "node", "id": 4286060573, "lat": -19.8554946, "lon": -43.8893816, "tags": {"bus": "yes", "highway": "bus_stop", "name": "Rua Paulo Pinheiro Chagas, 30", "public_transport": "platform"}}, {"type": "node", "id": 4286060574, "lat": -19.8560251, "lon": -43.8908866, "tags": {"bus": "yes", "highway": "bus_stop", "name": "Rua Marrocos Filho, 70", "public_transport": "platform"}}, {"type": "node", "id": 4286060575, "lat": -19.8559718, "lon": -43.8909751, "tags": {"bus": "yes", "highway": "bus_stop", "name": "Rua Marrocos Filho, 109", "public_transport": "platform"}}, {"type": "node", "id": 4286060576, "lat": -19.856611, "lon": -43.891913, "tags": {"bus": "yes", "highway": "bus_stop", "name": "Rua Professor Wladimir Gomes, 112", "public_transport": "platform"}}, {"type": "node", "id": 4286060577, "lat": -19.8565277, "lon": -43.8919484, "tags": {"bus": "yes", "highway": "bus_stop", "name": "Rua Professor Wladimir Gomes, 113", "public_transport": "platform"}}, {"type": "node", "id": 4286060578, "lat": -19.8584848, "lon": -43.8927879, "tags": {"bus": "yes", "highway": "bus_stop", "public_transport": "platform"}}, {"type": "node", "id": 4408923492, "lat": -19.8955776, "lon": -43.9563776, "tags": {"bus": "yes", "highway": "bus_stop", "name": "4113 - bom jesus", "name:pt": "4113 - bom jesus", "public_transport": "platform"}}, {"type": "node", "id": 4408923494, "lat": -19.8896274, "lon": -43.969236, "tags": {"bus": "yes", "highway": "bus_stop", "name": "savasi(4032)-Bh shopping(4150)-50-DomBosco(54)-70-503-507", "name:pt": "savasi(4032)-Bh shopping(4150)-50-DomBosco(54)-70-503-507", "public_transport": "platform"}}, {"type": "node", "id": 4408923495, "lat": -19.8991132, "lon": -43.9663167, "tags": {"bus": "yes", "highway": "bus_stop", "name": "4032", "name:pt": "4032", "public_transport": "platform"}}, {"type": "node", "id": 4408924290, "lat": -19.8965001, "lon": -43.9548815, "tags": {"bus": "yes", "highway": "bus_stop", "name": "Final 4113 - Bom Jesus / Belvedere", "name:pt": "Final 4113 - Bom Jesus / Belvedere", "public_transport": "platform"}}, {"type": "node", "id": 4433317106, "lat": -19.9518111, "lon": -43.9274759, "tags": {"bus": "yes", "highway": "bus_stop", "public_transport": "platform"}}, {"type": "node", "id": 4607672538, "lat": -19.8998335, "lon": -43.9786229, "tags": {"bus": "yes", "highway": "bus_stop", "public_transport": "stop_position"}}, {"type": "node", "id": 4638893617, "lat": -19.9118617, "lon": -43.9311893, "tags": {"highway": "bus_stop"}}, {"type": "node", "id": 4638893618, "lat": -19.9133702, "lon": -43.931403, "tags": {"highway": "bus_stop"}}, {"type": "node", "id": 4638893619, "lat": -19.9133312, "lon": -43.9296295, "tags": {"bus": "yes", "highway": "bus_stop", "public_transport": "platform"}}, {"type": "node", "id": 4638893626, "lat": -19.9167241, "lon": -43.9285445, "tags": {"bus": "yes", "highway": "bus_stop", "public_transport": "platform"}}, {"type": "node", "id": 4650413864, "lat": -19.8687239, "lon": -43.9679099, "tags": {"bus": "yes", "highway": "bus_stop", "public_transport": "platform"}}, {"type": "node", "id": 4650413865, "lat": -19.872842, "lon": -43.9733416, "tags": {"bus": "yes", "highway": "bus_stop", "public_transport": "platform"}}, {"type": "node", "id": 4650455189, "lat": -19.9121171, "lon": -43.929112, "tags": {"highway": "bus_stop"}}, {"type": "node", "id": 4650455195, "lat": -19.9141714, "lon": -43.928431, "tags": {"bus": "yes", "highway": "bus_stop", "public_transport": "platform"}}, {"type": "node", "id": 4653396646, "lat": -19.872352, "lon": -43.9267083, "tags": {"bus": "yes", "covered": "yes", "highway": "bus_stop", "public_transport": "platform"}}, {"type": "node", "id": 4677191727, "lat": -19.9758298, "lon": -43.9467146, "tags": {"bus": "yes", "highway": "bus_stop", "public_transport": "platform"}}, {"type": "node", "id": 4696431324, "lat": -19.9691529, "lon": -43.9553262, "tags": {"highway": "bus_stop"}}, {"type": "node", "id": 4705336593, "lat": -19.9156459, "lon": -43.9183022, "tags": {"highway": "bus_stop"}}, {"type": "node", "id": 4902952553, "lat": -19.9036918, "lon": -43.9444203, "tags": {"bench": "no", "bus": "yes", "highway": "bus_stop", "public_transport": "platform", "shelter": "no", "source": "Mapillary"}}, {"type": "node", "id": 4902952555, "lat": -19.9058492, "lon": -43.9434269, "tags": {"bench": "yes", "bus": "yes", "highway": "bus_stop", "public_transport": "platform", "shelter": "yes", "source": "Mapillary"}}, {"type": "node", "id": 4902968241, "lat": -19.8809978, "lon": -43.9515802, "tags": {"bench": "no", "bus": "yes", "highway": "bus_stop", "public_transport": "platform", "shelter": "no", "source": "Mapillary", "tactile_paving": "no"}}, {"type": "node", "id": 4902973722, "lat": -19.8664665, "lon": -43.9564973, "tags": {"bench": "yes", "bus": "yes", "highway": "bus_stop", "public_transport": "platform", "shelter": "yes", "source": "Mapillary"}}, {"type": "node", "id": 4902973724, "lat": -19.8664034, "lon": -43.9570244, "tags": {"bench": "yes", "bus": "yes", "highway": "bus_stop", "public_transport": "platform", "shelter": "yes", "source": "Mapillary"}}, {"type": "node", "id": 4958535979, "lat": -19.9067915, "lon": -43.9766897, "tags": {"highway": "bus_stop", "tactile_paving": "no"}}, {"type": "node", "id": 4984935176, "lat": -19.9356915, "lon": -43.9369696, "tags": {"bench": "yes", "bus": "yes", "highway": "bus_stop", "public_transport": "platform", "shelter": "yes"}}, {"type": "node", "id": 5018866616, "lat": -19.8684272, "lon": -43.9386035, "tags": {"bus": "yes", "highway": "bus_stop", "public_transport": "platform"}}, {"type": "node", "id": 5078923296, "lat": -19.9116835, "lon": -43.9699097, "tags": {"highway": "bus_stop"}}, {"type": "node", "id": 5078923300, "lat": -19.9125711, "lon": -43.9737482, "tags": {"highway": "bus_stop"}}, {"type": "node", "id": 5078923303, "lat": -19.9124788, "lon": -43.9770671, "tags": {"highway": "bus_stop"}}, {"type": "node", "id": 5078963387, "lat": -19.9109692, "lon": -43.9816063, "tags": {"highway": "bus_stop"}}, {"type": "node", "id": 5078963393, "lat": -19.9073129, "lon": -43.9836122, "tags": {"highway": "bus_stop"}}, {"type": "node", "id": 5079021628, "lat": -19.9058183, "lon": -43.9895605, "tags": {"highway": "bus_stop"}}, {"type": "node", "id": 5081510031, "lat": -19.9493638, "lon": -44.0085541, "tags": {"highway": "bus_stop"}}, {"type": "node", "id": 5152822397, "lat": -19.8797833, "lon": -43.9131045, "tags": {"highway": "bus_stop", "shelter": "yes"}}, {"type": "node", "id": 5204273488, "lat": -19.9402389, "lon": -43.9538897, "tags": {"bus": "yes", "highway": "bus_stop", "public_transport": "platform"}}, {"type": "node", "id": 5204301945, "lat": -19.942782, "lon": -43.9562734, "tags": {"bus": "yes", "highway": "bus_stop", "public_transport": "platform"}}, {"type": "node", "id": 5204301951, "lat": -19.9506563, "lon": -43.9597602, "tags": {"bus": "yes", "highway": "bus_stop", "public_transport": "platform"}}, {"type": "node", "id": 5210983359, "lat": -19.9462861, "lon": -43.9533062, "tags": {"bus": "yes", "highway": "bus_stop", "public_transport": "platform"}}, {"type": "node", "id": 5212608509, "lat": -19.98304, "lon": -44.0318286, "tags": {"highway": "bus_stop"}}, {"type": "node", "id": 5216588621, "lat": -19.9444773, "lon": -43.9496259, "tags": {"bus": "yes", "highway": "bus_stop", "name": "Ponto de \u00f4nibus", "public_transport": "platform"}}, {"type": "node", "id": 5216588630, "lat": -19.947448, "lon": -43.9499177, "tags": {"bus": "yes", "highway": "bus_stop", "public_transport": "platform"}}, {"type": "node", "id": 5216588631, "lat": -19.9485723, "lon": -43.949333, "tags": {"bus": "yes", "highway": "bus_stop", "public_transport": "platform"}}, {"type": "node", "id": 5216588632, "lat": -19.9480779, "lon": -43.9483355, "tags": {"bus": "yes", "highway": "bus_stop", "public_transport": "platform"}}, {"type": "node", "id": 5216588633, "lat": -19.947134, "lon": -43.948833, "tags": {"bus": "yes", "highway": "bus_stop", "public_transport": "platform"}}, {"type": "node", "id": 5216588634, "lat": -19.9466837, "lon": -43.9533561, "tags": {"bus": "yes", "highway": "bus_stop", "public_transport": "platform"}}, {"type": "node", "id": 5216588635, "lat": -19.947009, "lon": -43.9536711, "tags": {"bus": "yes", "highway": "bus_stop", "public_transport": "platform"}}, {"type": "node", "id": 5216588636, "lat": -19.9489944, "lon": -43.9537449, "tags": {"bus": "yes", "highway": "bus_stop", "public_transport": "platform"}}, {"type": "node", "id": 5216588637, "lat": -19.9473745, "lon": -43.95533, "tags": {"bus": "yes", "highway": "bus_stop", "public_transport": "platform"}}, {"type": "node", "id": 5216588638, "lat": -19.9479099, "lon": -43.9584305, "tags": {"bus": "yes", "highway": "bus_stop", "public_transport": "platform"}}, {"type": "node", "id": 5216692392, "lat": -19.9478163, "lon": -43.9608708, "tags": {"bus": "yes", "highway": "bus_stop", "public_transport": "platform"}}, {"type": "node", "id": 5216736901, "lat": -19.9465157, "lon": -43.9606057, "tags": {"bus": "yes", "highway": "bus_stop", "name": "Ponto de onibus", "public_transport": "platform"}}, {"type": "node", "id": 5217129567, "lat": -19.9453334, "lon": -43.9571441, "tags": {"bus": "yes", "highway": "bus_stop", "public_transport": "platform"}}, {"type": "node", "id": 5217903852, "lat": -19.9445385, "lon": -43.9565887, "tags": {"addr:city": "Belo Horizonte - MG", "addr:housenumber": "1051", "addr:postcode": "30380-103", "addr:street": "Avenida Raja Gabaglia", "addr:suburb": "Luxemburgo", "amenity": "fast_food", "brand": "Subway", "brand:wikidata": "Q244457", "brand:wikipedia": "en:Subway (restaurant)", "bus": "yes", "cuisine": "sandwich", "highway": "bus_stop", "name": "Subway", "public_transport": "platform", "takeaway": "yes"}}, {"type": "node", "id": 5228471711, "lat": -19.9464659, "lon": -43.9590068, "tags": {"bench": "yes", "bus": "yes", "highway": "bus_stop", "name": "\u00d4nibus", "operator": "5201/9208/9206/", "public_transport": "platform", "shelter": "yes"}}, {"type": "node", "id": 5228471982, "lat": -19.9467974, "lon": -43.9594359, "tags": {"bench": "yes", "bus": "yes", "highway": "bus_stop", "name": "\u00d4nibus", "operator": "5201/9208/9206/", "public_transport": "platform", "shelter": "yes"}}, {"type": "node", "id": 5229225506, "lat": -19.9452262, "lon": -43.9594998, "tags": {"bus": "yes", "highway": "bus_stop", "public_transport": "platform"}}, {"type": "node", "id": 5229225507, "lat": -19.945506, "lon": -43.9587236, "tags": {"bus": "yes", "highway": "bus_stop", "public_transport": "platform"}}, {"type": "node", "id": 5239585823, "lat": -19.9325969, "lon": -43.9767888, "tags": {"bus": "yes", "highway": "bus_stop", "public_transport": "platform"}}, {"type": "node", "id": 5314163894, "lat": -19.871258, "lon": -43.9805778, "tags": {"bus": "yes", "highway": "bus_stop", "public_transport": "platform"}}, {"type": "node", "id": 5368881518, "lat": -19.9787574, "lon": -43.9801813, "tags": {"bus": "yes", "highway": "bus_stop", "public_transport": "platform"}}, {"type": "node", "id": 5371160809, "lat": -19.8805448, "lon": -44.0008017, "tags": {"bus": "yes", "highway": "bus_stop", "public_transport": "platform"}}, {"type": "node", "id": 5390221042, "lat": -19.9774825, "lon": -43.9696397, "tags": {"bus": "yes", "highway": "bus_stop", "public_transport": "platform"}}, {"type": "node", "id": 5406060978, "lat": -19.8769572, "lon": -43.9812151, "tags": {"bus": "yes", "highway": "bus_stop", "public_transport": "stop_position"}}, {"type": "node", "id": 5406060979, "lat": -19.8755251, "lon": -43.9801687, "tags": {"bus": "yes", "highway": "bus_stop", "public_transport": "stop_position"}}, {"type": "node", "id": 5406199536, "lat": -19.8798195, "lon": -43.9818892, "tags": {"bus": "yes", "highway": "bus_stop", "public_transport": "stop_position"}}, {"type": "node", "id": 5408398519, "lat": -19.914284, "lon": -43.9878281, "tags": {"bus": "yes", "highway": "bus_stop", "public_transport": "platform"}}, {"type": "node", "id": 5438337840, "lat": -19.9386824, "lon": -43.9991439, "tags": {"bus": "yes", "highway": "bus_stop", "name": "Ponto Intercampi", "public_transport": "platform"}}, {"type": "node", "id": 5540567244, "lat": -19.939088, "lon": -44.002725, "tags": {"bus": "yes", "highway": "bus_stop", "public_transport": "platform"}}, {"type": "node", "id": 5556904894, "lat": -19.8576995, "lon": -43.8940451, "tags": {"bus": "yes", "highway": "bus_stop", "name": "Rua Abilio Alves Dos Santos, 237", "public_transport": "platform", "ref": "21892"}}, {"type": "node", "id": 5556904895, "lat": -19.8577752, "lon": -43.8940934, "tags": {"bus": "yes", "highway": "bus_stop", "name": "Rua Abilio Alves Dos Santos, 216", "public_transport": "platform", "ref": "21891"}}, {"type": "node", "id": 5556904896, "lat": -19.8598438, "lon": -43.8947479, "tags": {"bus": "yes", "highway": "bus_stop", "name": "Rua Rosemberg Silva, 178", "public_transport": "platform", "ref": "21968"}}, {"type": "node", "id": 5556904897, "lat": -19.858008, "lon": -43.896545, "tags": {"bus": "yes", "highway": "bus_stop", "name": "Rua Rosemberg Silva 36", "public_transport": "platform", "ref": "21967"}}, {"type": "node", "id": 5556904898, "lat": -19.8580698, "lon": -43.8970861, "tags": {"bus": "yes", "highway": "bus_stop", "name": "Rua Maria Conceicao Bonfim, 346", "public_transport": "platform", "ref": "20751"}}, {"type": "node", "id": 5556904899, "lat": -19.8587624, "lon": -43.8978317, "tags": {"bus": "yes", "highway": "bus_stop", "name": "Rua Maria Conceicao Bonfim, 410", "public_transport": "platform", "ref": "20753"}}, {"type": "node", "id": 5556904900, "lat": -19.859736, "lon": -43.8987221, "tags": {"bus": "yes", "highway": "bus_stop", "name": "Rua Rosalvo De Melo Franco, 451", "public_transport": "platform", "ref": "21519"}}, {"type": "node", "id": 5556904901, "lat": -19.8599097, "lon": -43.8986115, "tags": {"bus": "yes", "highway": "bus_stop", "name": "Rua Rosalvo De Melo Franco, 430", "public_transport": "platform", "ref": "21518"}}, {"type": "node", "id": 5556904902, "lat": -19.861053, "lon": -43.8990018, "tags": {"bus": "yes", "highway": "bus_stop", "public_transport": "platform"}}, {"type": "node", "id": 5556904903, "lat": -19.8610874, "lon": -43.8988473, "tags": {"bus": "yes", "highway": "bus_stop", "name": "Rua Rosalvo De Melo Franco, 310", "public_transport": "platform", "ref": "21517"}}, {"type": "node", "id": 5556904904, "lat": -19.8607007, "lon": -43.8997225, "tags": {"bus": "yes", "highway": "bus_stop", "name": "Rua Monsenhor Artur De Oliveira, 64", "public_transport": "platform", "ref": "21163"}}, {"type": "node", "id": 5556904905, "lat": -19.860823, "lon": -43.8996777, "tags": {"bus": "yes", "highway": "bus_stop", "public_transport": "platform"}}, {"type": "node", "id": 5556904906, "lat": -19.8603305, "lon": -43.9009008, "tags": {"bus": "yes", "highway": "bus_stop", "name": "Rua Monsenhor Artur De Oliveira, 215", "public_transport": "platform", "ref": "21164"}}, {"type": "node", "id": 5556904907, "lat": -19.8601108, "lon": -43.9011344, "tags": {"bus": "yes", "highway": "bus_stop", "name": "Rua Erothides Dias Ladeira, 218", "public_transport": "platform", "ref": "21579"}}, {"type": "node", "id": 5556904908, "lat": -19.8600575, "lon": -43.9019201, "tags": {"bus": "yes", "highway": "bus_stop", "name": "Rua Decio Silveira Marques, 230", "public_transport": "platform", "ref": "20479"}}, {"type": "node", "id": 5556904909, "lat": -19.8606467, "lon": -43.9021572, "tags": {"bus": "yes", "highway": "bus_stop", "name": "Rua Decio Silveira Marques, 182", "public_transport": "platform", "ref": "20477"}}, {"type": "node", "id": 5556904910, "lat": -19.8607832, "lon": -43.9023236, "tags": {"bus": "yes", "highway": "bus_stop", "name": "Rua Decio Silveira Marques, 183", "public_transport": "platform", "ref": "20478"}}, {"type": "node", "id": 5556904911, "lat": -19.8611826, "lon": -43.9004124, "tags": {"bus": "yes", "highway": "bus_stop", "name": "Rua Odilon Melo Franco, 135", "public_transport": "platform", "ref": "21165"}}, {"type": "node", "id": 5556904912, "lat": -19.8612625, "lon": -43.9004513, "tags": {"bus": "yes", "highway": "bus_stop", "name": "Rua Odilon Melo Franco, 152", "public_transport": "platform", "ref": "21166"}}, {"type": "node", "id": 5556904913, "lat": -19.8606967, "lon": -43.903081, "tags": {"bus": "yes", "highway": "bus_stop", "name": "Rua Acacio Correa Dolabela, 175", "public_transport": "platform", "ref": "22156"}}, {"type": "node", "id": 5556904914, "lat": -19.8607732, "lon": -43.9031978, "tags": {"bus": "yes", "highway": "bus_stop", "name": "Rua Acacio Correa Dolabela, 210", "public_transport": "platform", "ref": "22157"}}, {"type": "node", "id": 5556904915, "lat": -19.8606885, "lon": -43.904915, "tags": {"bus": "yes", "highway": "bus_stop", "name": "Rua Aracy De Almeida, 15", "public_transport": "platform", "ref": "21686"}}, {"type": "node", "id": 5556904916, "lat": -19.860774, "lon": -43.9048724, "tags": {"bus": "yes", "highway": "bus_stop", "name": "Rua Aracy De Almeida, 36", "public_transport": "platform", "ref": "21687"}}, {"type": "node", "id": 5556904917, "lat": -19.8609448, "lon": -43.9049822, "tags": {"bus": "yes", "highway": "bus_stop", "name": "Rua Doutor Arcanjo Gazoli, 22", "public_transport": "platform", "ref": "20429"}}, {"type": "node", "id": 5556904918, "lat": -19.860915, "lon": -43.9049176, "tags": {"bus": "yes", "highway": "bus_stop", "name": "Rua Doutor Arcanjo Gazoli, 23", "public_transport": "platform", "ref": "20430"}}, {"type": "node", "id": 5556904919, "lat": -19.8624085, "lon": -43.9035301, "tags": {"bus": "yes", "highway": "bus_stop", "name": "Rua Doutor Arcanjo Gazoli, 129", "public_transport": "platform", "ref": "20431"}}, {"type": "node", "id": 5556904920, "lat": -19.8624585, "lon": -43.9036292, "tags": {"bus": "yes", "highway": "bus_stop", "name": "Rua Doutor Arcanjo Gazoli, 140", "public_transport": "platform", "ref": "20432"}}, {"type": "node", "id": 5556906021, "lat": -19.8604833, "lon": -43.9051796, "tags": {"bus": "yes", "highway": "bus_stop", "name": "Rod Mg Cinco, 271", "public_transport": "platform", "ref": "20607"}}, {"type": "node", "id": 5556906022, "lat": -19.8628655, "lon": -43.902842, "tags": {"bus": "yes", "highway": "bus_stop", "name": "Rua Silverio Alves De Assis, 45", "public_transport": "platform", "ref": "21172"}}, {"type": "node", "id": 5556906023, "lat": -19.862984, "lon": -43.9028785, "tags": {"bus": "yes", "highway": "bus_stop", "name": "Rua Silverio Alves De Assis, 20", "public_transport": "platform", "ref": "21170"}}, {"type": "node", "id": 5556906024, "lat": -19.8629537, "lon": -43.9022475, "tags": {"bus": "yes", "highway": "bus_stop", "name": "Rua Capitao Silvio Carvalho, 126", "public_transport": "platform", "ref": "20476"}}, {"type": "node", "id": 5556906025, "lat": -19.8622061, "lon": -43.9018408, "tags": {"bus": "yes", "highway": "bus_stop", "name": "Rua Capitao Silvio Carvalho, 63", "public_transport": "platform", "ref": "20475"}}, {"type": "node", "id": 5556906026, "lat": -19.8617048, "lon": -43.9018686, "tags": {"bus": "yes", "highway": "bus_stop", "name": "Rua Capitao Silvio Carvalho, 26", "public_transport": "platform", "ref": "20474"}}, {"type": "node", "id": 5556906027, "lat": -19.864023, "lon": -43.9016221, "tags": {"bus": "yes", "highway": "bus_stop", "name": "Rua Silverio Alves De Assis, 35", "public_transport": "platform", "ref": "21171"}}, {"type": "node", "id": 5556906028, "lat": -19.8645156, "lon": -43.9008333, "tags": {"bus": "yes", "highway": "bus_stop", "name": "Rua Amaro Neves Barreto, 99", "public_transport": "platform", "ref": "20556"}}, {"type": "node", "id": 5556906029, "lat": -19.8649387, "lon": -43.9000199, "tags": {"bus": "yes", "highway": "bus_stop", "name": "Rua Maria Conceicao Bonfim, 1312", "public_transport": "platform", "ref": "20757"}}, {"type": "node", "id": 5556906030, "lat": -19.8659036, "lon": -43.9006577, "tags": {"bus": "yes", "highway": "bus_stop", "name": "Rua Maria Conceicao Bonfim, 1386", "public_transport": "platform", "ref": "20759"}}, {"type": "node", "id": 5556906031, "lat": -19.8659471, "lon": -43.902531, "tags": {"bus": "yes", "highway": "bus_stop", "name": "Rua Maria Conceicao Bonfim, 131", "public_transport": "platform", "ref": "20749"}}, {"type": "node", "id": 5556906032, "lat": -19.8663702, "lon": -43.9033136, "tags": {"bus": "yes", "highway": "bus_stop", "name": "Rua Manoel Tavares De Abreu, 46", "public_transport": "platform", "ref": "22633"}}, {"type": "node", "id": 5574145824, "lat": -19.8626439, "lon": -43.8960654, "tags": {"bus": "yes", "highway": "bus_stop", "name": "Rua Avestruz, 244", "public_transport": "platform", "ref": "21972"}}, {"type": "node", "id": 5574145825, "lat": -19.8617884, "lon": -43.8959416, "tags": {"bus": "yes", "highway": "bus_stop", "name": "Rua Humberto Rodrigues De Oliveira, 95", "public_transport": "platform", "ref": "20282"}}, {"type": "node", "id": 5574145826, "lat": -19.8621218, "lon": -43.8967388, "tags": {"bus": "yes", "highway": "bus_stop", "name": "Rua Maria Do Nascimento Abreu, 132", "public_transport": "platform", "ref": "21280"}}, {"type": "node", "id": 5574145827, "lat": -19.8608015, "lon": -43.8963708, "tags": {"bus": "yes", "highway": "bus_stop", "name": "Rua Angelo De Aquino Filho, 149", "public_transport": "platform", "ref": "21401"}}, {"type": "node", "id": 5574145828, "lat": -19.8636794, "lon": -43.8969281, "tags": {"bus": "yes", "highway": "bus_stop", "name": "Rua Passaro Lira, 149", "public_transport": "platform", "ref": "21486"}}, {"type": "node", "id": 5574145829, "lat": -19.863741, "lon": -43.8968679, "tags": {"bus": "yes", "highway": "bus_stop", "name": "Rua Passaro Lira, 152", "public_transport": "platform", "ref": "21487"}}, {"type": "node", "id": 5574145830, "lat": -19.8636511, "lon": -43.8972625, "tags": {"bus": "yes", "highway": "bus_stop", "name": "Rua Pomba, 624", "public_transport": "platform", "ref": "21284"}}, {"type": "node", "id": 5574145832, "lat": -19.8623688, "lon": -43.8981119, "tags": {"bus": "yes", "highway": "bus_stop", "name": "Rua Lucimara Marques, 774", "public_transport": "platform", "ref": "21801"}}, {"type": "node", "id": 5574145833, "lat": -19.8610739, "lon": -43.8980871, "tags": {"bus": "yes", "highway": "bus_stop", "name": "Rua Lucimara Marques, 397", "public_transport": "platform", "ref": "21800"}}, {"type": "node", "id": 5574145834, "lat": -19.8607577, "lon": -43.8977651, "tags": {"bus": "yes", "highway": "bus_stop", "name": "Rua Lucimara Marques, 896", "public_transport": "platform", "ref": "1802"}}, {"type": "node", "id": 5574145835, "lat": -19.860072, "lon": -43.8975386, "tags": {"bus": "yes", "highway": "bus_stop", "name": "Rua Lucimara Marques, 941", "public_transport": "platform", "ref": "21803"}}, {"type": "node", "id": 5574145836, "lat": -19.8593064, "lon": -43.8973333, "tags": {"bus": "yes", "highway": "bus_stop", "name": "Rua Lucimara Marques, 96", "public_transport": "platform", "ref": "21799"}}, {"type": "node", "id": 5574145837, "lat": -19.8592664, "lon": -43.8982181, "tags": {"bus": "yes", "highway": "bus_stop", "name": "Rua Arieta Bistene Farah, 15", "public_transport": "platform", "ref": "21396"}}, {"type": "node", "id": 5574145838, "lat": -19.866824, "lon": -43.9022906, "tags": {"bus": "yes", "highway": "bus_stop", "name": "Rua Mario Salustiano, 16", "public_transport": "platform", "ref": "20800"}}, {"type": "node", "id": 5574145839, "lat": -19.8667212, "lon": -43.9012375, "tags": {"bus": "yes", "highway": "bus_stop", "name": "Rua Jose Do Nascimento Castro, 82", "public_transport": "platform", "ref": "22386"}}, {"type": "node", "id": 5574145840, "lat": -19.865977, "lon": -43.9002638, "tags": {"bus": "yes", "highway": "bus_stop", "name": "Rua Dona Lolo, 185", "public_transport": "platform", "ref": "22385"}}, {"type": "node", "id": 5574145841, "lat": -19.866749, "lon": -43.9000788, "tags": {"bus": "yes", "highway": "bus_stop", "name": "Rua Jose Do Nascimento Castro, 180", "public_transport": "platform", "ref": "20887"}}, {"type": "node", "id": 5574145842, "lat": -19.8677458, "lon": -43.9022417, "tags": {"bus": "yes", "highway": "bus_stop", "name": "Rua Manoel Tavares De Abreu, 231", "public_transport": "platform", "ref": "20029"}}, {"type": "node", "id": 5574145843, "lat": -19.8677711, "lon": -43.9023624, "tags": {"bus": "yes", "highway": "bus_stop", "name": "Rua Manoel Tavares De Abreu, 230", "public_transport": "platform", "ref": "20028"}}, {"type": "node", "id": 5576128231, "lat": -19.9654993, "lon": -43.9678568, "tags": {"bus": "yes", "highway": "bus_stop", "public_transport": "platform"}}, {"type": "node", "id": 5619944914, "lat": -19.8692179, "lon": -43.9014881, "tags": {"bus": "yes", "highway": "bus_stop", "name": "Rua Tujutiu, 182", "public_transport": "platform"}}, {"type": "node", "id": 5619944915, "lat": -19.8697101, "lon": -43.9015015, "tags": {"bus": "yes", "highway": "bus_stop", "name": "Rua Tujutiu, 163", "public_transport": "platform"}}, {"type": "node", "id": 5619944916, "lat": -19.8696535, "lon": -43.9017167, "tags": {"bus": "yes", "highway": "bus_stop", "name": "Avenida Josefino Gon\u00e7alves Da Silva, 137", "public_transport": "platform"}}, {"type": "node", "id": 5619944917, "lat": -19.8699081, "lon": -43.9018228, "tags": {"bus": "yes", "highway": "bus_stop", "name": "Avenida Josefino Gon\u00e7alves Da Silva, 356", "public_transport": "platform"}}, {"type": "node", "id": 5619944918, "lat": -19.8635813, "lon": -43.9047191, "tags": {"bus": "yes", "highway": "bus_stop", "public_transport": "platform"}}, {"type": "node", "id": 5619944919, "lat": -19.8645892, "lon": -43.9043508, "tags": {"bus": "yes", "highway": "bus_stop", "public_transport": "platform"}}, {"type": "node", "id": 5619944920, "lat": -19.8670529, "lon": -43.9040656, "tags": {"bus": "yes", "highway": "bus_stop", "public_transport": "platform"}}, {"type": "node", "id": 5619945521, "lat": -19.8677821, "lon": -43.9038912, "tags": {"bus": "yes", "highway": "bus_stop", "public_transport": "platform"}}, {"type": "node", "id": 5619945522, "lat": -19.8732771, "lon": -43.9036309, "tags": {"bus": "yes", "highway": "bus_stop", "public_transport": "platform"}}, {"type": "node", "id": 5619945523, "lat": -19.8731312, "lon": -43.9034343, "tags": {"bus": "yes", "highway": "bus_stop", "public_transport": "platform"}}, {"type": "node", "id": 5619945524, "lat": -19.8753422, "lon": -43.9055277, "tags": {"bus": "yes", "highway": "bus_stop", "public_transport": "platform"}}, {"type": "node", "id": 5619945525, "lat": -19.8769307, "lon": -43.9101576, "tags": {"bus": "yes", "highway": "bus_stop", "public_transport": "platform"}}, {"type": "node", "id": 5619945526, "lat": -19.8774414, "lon": -43.9110335, "tags": {"bus": "yes", "highway": "bus_stop", "public_transport": "platform"}}, {"type": "node", "id": 5619945527, "lat": -19.8829126, "lon": -43.9153762, "tags": {"bus": "yes", "highway": "bus_stop", "public_transport": "platform"}}, {"type": "node", "id": 5619945528, "lat": -19.8834857, "lon": -43.9153765, "tags": {"bus": "yes", "highway": "bus_stop", "public_transport": "platform"}}, {"type": "node", "id": 5619945529, "lat": -19.8834244, "lon": -43.9137366, "tags": {"bus": "yes", "highway": "bus_stop", "public_transport": "platform"}}, {"type": "node", "id": 5619945530, "lat": -19.8865639, "lon": -43.9124209, "tags": {"bus": "yes", "highway": "bus_stop", "public_transport": "platform"}}, {"type": "node", "id": 5871125676, "lat": -19.863005, "lon": -43.9273112, "tags": {"bus": "yes", "highway": "bus_stop", "public_transport": "platform"}}, {"type": "node", "id": 5871125677, "lat": -19.8630166, "lon": -43.9271156, "tags": {"bus": "yes", "highway": "bus_stop", "public_transport": "platform"}}, {"type": "node", "id": 5871125678, "lat": -19.8634659, "lon": -43.9288517, "tags": {"bus": "yes", "highway": "bus_stop", "public_transport": "platform"}}, {"type": "node", "id": 6060604352, "lat": -19.8632541, "lon": -43.9254429, "tags": {"bus": "yes", "highway": "bus_stop", "public_transport": "platform"}}, {"type": "node", "id": 6081105731, "lat": -19.9170254, "lon": -43.9748606, "tags": {"bench": "no", "bus": "yes", "highway": "bus_stop", "lit": "yes", "passenger_information_display": "no", "public_transport": "platform", "shelter": "no", "surface": "asphalt"}}, {"type": "node", "id": 6116609688, "lat": -19.9125446, "lon": -43.9662654, "tags": {"bench": "yes", "bus": "yes", "departures_board": "timetable", "highway": "bus_stop", "public_transport": "platform"}}, {"type": "node", "id": 6120432563, "lat": -19.9292239, "lon": -43.9574156, "tags": {"bus": "yes", "highway": "bus_stop", "public_transport": "platform"}}, {"type": "node", "id": 6120432564, "lat": -19.9269901, "lon": -43.9582644, "tags": {"bus": "yes", "highway": "bus_stop", "public_transport": "platform"}}, {"type": "node", "id": 6120432565, "lat": -19.9267882, "lon": -43.9579865, "tags": {"bus": "yes", "highway": "bus_stop", "public_transport": "platform"}}, {"type": "node", "id": 6120434960, "lat": -19.9287309, "lon": -43.9573164, "tags": {"bus": "yes", "highway": "bus_stop", "public_transport": "platform"}}, {"type": "node", "id": 6400414529, "lat": -19.9178414, "lon": -43.9349239, "tags": {"bus": "yes", "highway": "bus_stop", "public_transport": "platform"}}, {"type": "node", "id": 6400414531, "lat": -19.9184048, "lon": -43.9347524, "tags": {"bus": "yes", "highway": "bus_stop", "public_transport": "platform", "shelter": "no"}}, {"type": "node", "id": 6400414532, "lat": -19.9183446, "lon": -43.9350678, "tags": {"bus": "yes", "highway": "bus_stop", "public_transport": "platform"}}, {"type": "node", "id": 6400414533, "lat": -19.9178376, "lon": -43.934589, "tags": {"bus": "yes", "highway": "bus_stop", "public_transport": "platform", "shelter": "no"}}, {"type": "node", "id": 6400414534, "lat": -19.9194255, "lon": -43.935365, "tags": {"bus": "yes", "highway": "bus_stop", "public_transport": "platform", "shelter": "yes"}}, {"type": "node", "id": 6400414535, "lat": -19.9209491, "lon": -43.9347336, "tags": {"bus": "yes", "highway": "bus_stop", "public_transport": "platform"}}, {"type": "node", "id": 6400414537, "lat": -19.9215353, "lon": -43.9338681, "tags": {"bus": "yes", "highway": "bus_stop", "public_transport": "platform"}}, {"type": "node", "id": 6400414539, "lat": -19.9222278, "lon": -43.932266, "tags": {"bus": "yes", "highway": "bus_stop", "public_transport": "platform"}}, {"type": "node", "id": 6400414540, "lat": -19.9222723, "lon": -43.9318266, "tags": {"bus": "yes", "highway": "bus_stop", "public_transport": "platform", "shelter": "yes"}}, {"type": "node", "id": 6400414541, "lat": -19.9239962, "lon": -43.9315978, "tags": {"bus": "yes", "highway": "bus_stop", "public_transport": "platform"}}, {"type": "node", "id": 6400414542, "lat": -19.9233484, "lon": -43.9314137, "tags": {"bus": "yes", "highway": "bus_stop", "public_transport": "platform"}}, {"type": "node", "id": 6400414543, "lat": -19.9258982, "lon": -43.9320924, "tags": {"bus": "yes", "highway": "bus_stop", "public_transport": "platform"}}, {"type": "node", "id": 6447027346, "lat": -19.9669648, "lon": -43.9654298, "tags": {"bus": "yes", "highway": "bus_stop", "public_transport": "platform"}}, {"type": "node", "id": 6552047363, "lat": -19.9122789, "lon": -43.9651948, "tags": {"bus": "yes", "highway": "bus_stop", "public_transport": "platform"}}, {"type": "node", "id": 6554336101, "lat": -19.9139063, "lon": -43.9679623, "tags": {"bus": "yes", "departures_board": "no", "highway": "bus_stop", "public_transport": "platform", "shelter": "no"}}, {"type": "node", "id": 6554336109, "lat": -19.9151673, "lon": -43.971358, "tags": {"bus": "yes", "departures_board": "no", "highway": "bus_stop", "public_transport": "platform", "shelter": "no"}}, {"type": "node", "id": 6558283173, "lat": -19.9150111, "lon": -43.9751343, "tags": {"bus": "yes", "highway": "bus_stop", "public_transport": "platform"}}, {"type": "node", "id": 6565225440, "lat": -19.9007898, "lon": -44.0259351, "tags": {"bus": "yes", "highway": "bus_stop", "public_transport": "platform"}}, {"type": "node", "id": 6565225467, "lat": -19.9065574, "lon": -44.0247265, "tags": {"bus": "yes", "highway": "bus_stop", "public_transport": "platform"}}, {"type": "node", "id": 6565225468, "lat": -19.9065088, "lon": -44.0246172, "tags": {"bus": "yes", "highway": "bus_stop", "public_transport": "platform"}}, {"type": "node", "id": 6565225469, "lat": -19.9075305, "lon": -44.0240423, "tags": {"bus": "yes", "highway": "bus_stop", "public_transport": "platform"}}, {"type": "node", "id": 6565225470, "lat": -19.9073305, "lon": -44.0239014, "tags": {"bus": "yes", "highway": "bus_stop", "public_transport": "platform"}}, {"type": "node", "id": 6565225471, "lat": -19.907544, "lon": -44.0235277, "tags": {"bus": "yes", "highway": "bus_stop", "public_transport": "platform"}}, {"type": "node", "id": 6565225472, "lat": -19.9072656, "lon": -44.0228033, "tags": {"bus": "yes", "highway": "bus_stop", "public_transport": "platform"}}, {"type": "node", "id": 6565225473, "lat": -19.9067304, "lon": -44.0222255, "tags": {"bus": "yes", "highway": "bus_stop", "public_transport": "platform"}}, {"type": "node", "id": 6565225474, "lat": -19.905979, "lon": -44.0233667, "tags": {"bus": "yes", "highway": "bus_stop", "public_transport": "platform"}}, {"type": "node", "id": 6565225475, "lat": -19.9055627, "lon": -44.0226854, "tags": {"bus": "yes", "highway": "bus_stop", "public_transport": "platform"}}, {"type": "node", "id": 6565225476, "lat": -19.9052843, "lon": -44.0219121, "tags": {"bus": "yes", "highway": "bus_stop", "public_transport": "platform"}}, {"type": "node", "id": 6565225477, "lat": -19.905233, "lon": -44.0238353, "tags": {"bus": "yes", "highway": "bus_stop", "public_transport": "platform"}}, {"type": "node", "id": 6565225478, "lat": -19.904714, "lon": -44.0248645, "tags": {"bus": "yes", "highway": "bus_stop", "public_transport": "platform"}}, {"type": "node", "id": 6565225479, "lat": -19.9048599, "lon": -44.0249306, "tags": {"bus": "yes", "highway": "bus_stop", "public_transport": "platform"}}, {"type": "node", "id": 6565248744, "lat": -19.9366734, "lon": -44.0265495, "tags": {"bus": "yes", "highway": "bus_stop", "public_transport": "platform"}}, {"type": "node", "id": 6566616024, "lat": -19.9764658, "lon": -44.0628449, "tags": {"bus": "yes", "highway": "bus_stop", "public_transport": "platform"}}, {"type": "node", "id": 6566616026, "lat": -19.9741521, "lon": -44.0621848, "tags": {"bus": "yes", "highway": "bus_stop", "public_transport": "platform"}}, {"type": "node", "id": 6566616027, "lat": -19.9741272, "lon": -44.062071, "tags": {"bus": "yes", "highway": "bus_stop", "public_transport": "platform"}}, {"type": "node", "id": 6566616028, "lat": -19.97376, "lon": -44.0623631, "tags": {"bus": "yes", "highway": "bus_stop", "public_transport": "platform"}}, {"type": "node", "id": 6566616030, "lat": -19.9742805, "lon": -44.0610014, "tags": {"bus": "yes", "highway": "bus_stop", "public_transport": "platform"}}, {"type": "node", "id": 6566616031, "lat": -19.9755318, "lon": -44.0594006, "tags": {"bus": "yes", "highway": "bus_stop", "public_transport": "platform"}}, {"type": "node", "id": 6566616032, "lat": -19.9756601, "lon": -44.0592906, "tags": {"bus": "yes", "highway": "bus_stop", "public_transport": "platform"}}, {"type": "node", "id": 6566616033, "lat": -19.9750541, "lon": -44.0580123, "tags": {"bus": "yes", "highway": "bus_stop", "public_transport": "platform"}}, {"type": "node", "id": 6566616034, "lat": -19.9749971, "lon": -44.0574775, "tags": {"bus": "yes", "highway": "bus_stop", "public_transport": "platform"}}, {"type": "node", "id": 6566616040, "lat": -19.9744873, "lon": -44.0553684, "tags": {"bus": "yes", "highway": "bus_stop", "public_transport": "platform"}}, {"type": "node", "id": 6566616041, "lat": -19.9747653, "lon": -44.0552508, "tags": {"bus": "yes", "highway": "bus_stop", "public_transport": "platform"}}, {"type": "node", "id": 6566616042, "lat": -19.9751076, "lon": -44.0560891, "tags": {"bus": "yes", "highway": "bus_stop", "public_transport": "platform"}}, {"type": "node", "id": 6566616043, "lat": -19.9754605, "lon": -44.0564533, "tags": {"bus": "yes", "highway": "bus_stop", "public_transport": "platform"}}, {"type": "node", "id": 6566616044, "lat": -19.9757814, "lon": -44.056954, "tags": {"bus": "yes", "highway": "bus_stop", "public_transport": "platform"}}, {"type": "node", "id": 6566616045, "lat": -19.9762377, "lon": -44.0568667, "tags": {"bus": "yes", "highway": "bus_stop", "public_transport": "platform"}}, {"type": "node", "id": 6566616046, "lat": -19.9764872, "lon": -44.0567833, "tags": {"bus": "yes", "highway": "bus_stop", "public_transport": "platform"}}, {"type": "node", "id": 6566616047, "lat": -19.9774854, "lon": -44.0573181, "tags": {"bus": "yes", "highway": "bus_stop", "public_transport": "platform"}}, {"type": "node", "id": 6566616048, "lat": -19.9774605, "lon": -44.0571968, "tags": {"bus": "yes", "highway": "bus_stop", "public_transport": "platform"}}, {"type": "node", "id": 6566616049, "lat": -19.9770505, "lon": -44.0560057, "tags": {"bus": "yes", "highway": "bus_stop", "public_transport": "platform"}}, {"type": "node", "id": 6566616050, "lat": -19.9787403, "lon": -44.0544541, "tags": {"bus": "yes", "highway": "bus_stop", "public_transport": "platform"}}, {"type": "node", "id": 6566616051, "lat": -19.9788242, "lon": -44.0542476, "tags": {"bus": "yes", "highway": "bus_stop", "public_transport": "platform"}}, {"type": "node", "id": 6566616052, "lat": -19.9794844, "lon": -44.0558282, "tags": {"bus": "yes", "highway": "bus_stop", "public_transport": "platform"}}, {"type": "node", "id": 6566616053, "lat": -19.9793368, "lon": -44.0558036, "tags": {"bus": "yes", "highway": "bus_stop", "public_transport": "platform"}}, {"type": "node", "id": 6566616054, "lat": -19.9810026, "lon": -44.0526193, "tags": {"bus": "yes", "highway": "bus_stop", "public_transport": "platform"}}, {"type": "node", "id": 6566616055, "lat": -19.9811773, "lon": -44.0527293, "tags": {"bus": "yes", "highway": "bus_stop", "public_transport": "platform"}}, {"type": "node", "id": 6566616056, "lat": -19.9797549, "lon": -44.0530214, "tags": {"bus": "yes", "highway": "bus_stop", "public_transport": "platform"}}, {"type": "node", "id": 6566616057, "lat": -19.9799581, "lon": -44.0528393, "tags": {"bus": "yes", "highway": "bus_stop", "public_transport": "platform"}}, {"type": "node", "id": 6566616058, "lat": -19.9802219, "lon": -44.0517544, "tags": {"bus": "yes", "highway": "bus_stop", "public_transport": "platform"}}, {"type": "node", "id": 6566616059, "lat": -19.9803752, "lon": -44.0512954, "tags": {"bus": "yes", "highway": "bus_stop", "public_transport": "platform"}}, {"type": "node", "id": 6566616060, "lat": -19.9810204, "lon": -44.0520769, "tags": {"bus": "yes", "highway": "bus_stop", "public_transport": "platform"}}, {"type": "node", "id": 6566616061, "lat": -19.9803252, "lon": -44.0498237, "tags": {"bus": "yes", "highway": "bus_stop", "public_transport": "platform"}}, {"type": "node", "id": 6566616062, "lat": -19.9804928, "lon": -44.049634, "tags": {"bus": "yes", "highway": "bus_stop", "public_transport": "platform"}}, {"type": "node", "id": 6566616063, "lat": -19.9801862, "lon": -44.0494823, "tags": {"bus": "yes", "highway": "bus_stop", "public_transport": "platform"}}, {"type": "node", "id": 6566616064, "lat": -19.9807174, "lon": -44.0489816, "tags": {"bus": "yes", "highway": "bus_stop", "public_transport": "platform"}}, {"type": "node", "id": 6566616065, "lat": -19.9806354, "lon": -44.0486099, "tags": {"bus": "yes", "highway": "bus_stop", "public_transport": "platform"}}, {"type": "node", "id": 6566616066, "lat": -19.9809348, "lon": -44.0484809, "tags": {"bus": "yes", "highway": "bus_stop", "public_transport": "platform"}}, {"type": "node", "id": 6566616067, "lat": -19.9817191, "lon": -44.048883, "tags": {"bus": "yes", "highway": "bus_stop", "public_transport": "platform"}}, {"type": "node", "id": 6566616068, "lat": -19.9817049, "lon": -44.0487768, "tags": {"bus": "yes", "highway": "bus_stop", "public_transport": "platform"}}, {"type": "node", "id": 6566616069, "lat": -19.9825533, "lon": -44.0484733, "tags": {"bus": "yes", "highway": "bus_stop", "public_transport": "platform"}}, {"type": "node", "id": 6566616070, "lat": -19.9826567, "lon": -44.0484771, "tags": {"bus": "yes", "highway": "bus_stop", "public_transport": "platform"}}, {"type": "node", "id": 6566616071, "lat": -19.9829062, "lon": -44.0472443, "tags": {"bus": "yes", "highway": "bus_stop", "public_transport": "platform"}}, {"type": "node", "id": 6566616072, "lat": -19.9830025, "lon": -44.0473088, "tags": {"bus": "yes", "highway": "bus_stop", "public_transport": "platform"}}, {"type": "node", "id": 6566616073, "lat": -19.9831451, "lon": -44.045636, "tags": {"bus": "yes", "highway": "bus_stop", "public_transport": "platform"}}, {"type": "node", "id": 6566616074, "lat": -19.9831415, "lon": -44.0452339, "tags": {"bus": "yes", "highway": "bus_stop", "public_transport": "platform"}}, {"type": "node", "id": 6566616075, "lat": -19.9824321, "lon": -44.0442742, "tags": {"bus": "yes", "highway": "bus_stop", "public_transport": "platform"}}, {"type": "node", "id": 6566616076, "lat": -19.9824677, "lon": -44.0441149, "tags": {"bus": "yes", "highway": "bus_stop", "public_transport": "platform"}}, {"type": "node", "id": 6566616077, "lat": -19.9813698, "lon": -44.0430528, "tags": {"bus": "yes", "highway": "bus_stop", "public_transport": "platform"}}, {"type": "node", "id": 6566616078, "lat": -19.9812699, "lon": -44.0428252, "tags": {"bus": "yes", "highway": "bus_stop", "public_transport": "platform"}}, {"type": "node", "id": 6566616079, "lat": -19.979844, "lon": -44.0440049, "tags": {"bus": "yes", "highway": "bus_stop", "public_transport": "platform"}}, {"type": "node", "id": 6566616080, "lat": -19.9796408, "lon": -44.0438949, "tags": {"bus": "yes", "highway": "bus_stop", "public_transport": "platform"}}, {"type": "node", "id": 6566616081, "lat": -19.9808529, "lon": -44.0426128, "tags": {"bus": "yes", "highway": "bus_stop", "public_transport": "platform"}}, {"type": "node", "id": 6566616082, "lat": -19.9809848, "lon": -44.0423624, "tags": {"bus": "yes", "highway": "bus_stop", "public_transport": "platform"}}, {"type": "node", "id": 6566616083, "lat": -19.9809741, "lon": -44.0414483, "tags": {"bus": "yes", "highway": "bus_stop", "public_transport": "platform"}}, {"type": "node", "id": 6566616084, "lat": -19.9810881, "lon": -44.0413383, "tags": {"bus": "yes", "highway": "bus_stop", "public_transport": "platform"}}, {"type": "node", "id": 6566616085, "lat": -19.9810489, "lon": -44.0404696, "tags": {"bus": "yes", "highway": "bus_stop", "public_transport": "platform"}}, {"type": "node", "id": 6566616087, "lat": -19.9817583, "lon": -44.039362, "tags": {"bus": "yes", "highway": "bus_stop", "public_transport": "platform"}}, {"type": "node", "id": 6566616090, "lat": -19.9796232, "lon": -44.0412886, "tags": {"bus": "yes", "highway": "bus_stop", "public_transport": "platform"}}, {"type": "node", "id": 6566616092, "lat": -19.9781509, "lon": -44.0426275, "tags": {"bus": "yes", "highway": "bus_stop", "public_transport": "platform"}}, {"type": "node", "id": 6566895090, "lat": -19.9731, "lon": -44.0524997, "tags": {"bus": "yes", "highway": "bus_stop", "public_transport": "platform"}}, {"type": "node", "id": 6566895106, "lat": -19.9753636, "lon": -44.0462765, "tags": {"bus": "yes", "highway": "bus_stop", "public_transport": "platform"}}, {"type": "node", "id": 6566895109, "lat": -19.9767188, "lon": -44.0446497, "tags": {"bus": "yes", "highway": "bus_stop", "public_transport": "platform"}}, {"type": "node", "id": 6566895110, "lat": -19.976574, "lon": -44.0441136, "tags": {"bus": "yes", "highway": "bus_stop", "public_transport": "platform"}}, {"type": "node", "id": 6566895111, "lat": -19.977906, "lon": -44.0443539, "tags": {"bus": "yes", "highway": "bus_stop", "public_transport": "platform"}}, {"type": "node", "id": 6570498098, "lat": -19.9950049, "lon": -44.0548426, "tags": {"bus": "yes", "highway": "bus_stop", "public_transport": "platform"}}, {"type": "node", "id": 6570498100, "lat": -19.9935804, "lon": -44.0549743, "tags": {"bus": "yes", "highway": "bus_stop", "public_transport": "platform"}}, {"type": "node", "id": 6570498102, "lat": -19.9929668, "lon": -44.0553194, "tags": {"bus": "yes", "highway": "bus_stop", "public_transport": "platform"}}, {"type": "node", "id": 6570498128, "lat": -19.9887471, "lon": -44.0549043, "tags": {"bus": "yes", "highway": "bus_stop", "public_transport": "platform"}}, {"type": "node", "id": 6570498129, "lat": -19.9907412, "lon": -44.0548607, "tags": {"bus": "yes", "highway": "bus_stop", "public_transport": "platform"}}, {"type": "node", "id": 6570498130, "lat": -19.9875002, "lon": -44.0552485, "tags": {"bus": "yes", "highway": "bus_stop", "public_transport": "platform"}}, {"type": "node", "id": 6570498132, "lat": -19.9859974, "lon": -44.053937, "tags": {"bus": "yes", "highway": "bus_stop", "public_transport": "platform"}}, {"type": "node", "id": 6570498157, "lat": -19.985549, "lon": -44.0548084, "tags": {"bus": "yes", "highway": "bus_stop", "public_transport": "platform"}}, {"type": "node", "id": 6570498158, "lat": -19.9854425, "lon": -44.0548673, "tags": {"bus": "yes", "highway": "bus_stop", "public_transport": "platform"}}, {"type": "node", "id": 6570498159, "lat": -19.985031, "lon": -44.0547692, "tags": {"bus": "yes", "highway": "bus_stop", "public_transport": "platform"}}, {"type": "node", "id": 6570498160, "lat": -19.9845478, "lon": -44.0546036, "tags": {"bus": "yes", "highway": "bus_stop", "public_transport": "platform"}}, {"type": "node", "id": 6570498161, "lat": -19.9844045, "lon": -44.0544577, "tags": {"bus": "yes", "highway": "bus_stop", "public_transport": "platform"}}, {"type": "node", "id": 6570498162, "lat": -19.9841322, "lon": -44.0547866, "tags": {"bus": "yes", "highway": "bus_stop", "public_transport": "platform"}}, {"type": "node", "id": 6570498163, "lat": -19.9842571, "lon": -44.0551396, "tags": {"bus": "yes", "highway": "bus_stop", "public_transport": "platform"}}, {"type": "node", "id": 6570498164, "lat": -19.9842673, "lon": -44.0552376, "tags": {"bus": "yes", "highway": "bus_stop", "public_transport": "platform"}}, {"type": "node", "id": 6570498165, "lat": -19.9859053, "lon": -44.0556472, "tags": {"bus": "yes", "highway": "bus_stop", "public_transport": "platform"}}, {"type": "node", "id": 6570498166, "lat": -19.9862165, "lon": -44.0558433, "tags": {"bus": "yes", "highway": "bus_stop", "public_transport": "platform"}}, {"type": "node", "id": 6570498173, "lat": -19.9798611, "lon": -44.0578868, "tags": {"bus": "yes", "highway": "bus_stop", "public_transport": "platform"}}, {"type": "node", "id": 6570498174, "lat": -19.9788128, "lon": -44.0588324, "tags": {"bus": "yes", "highway": "bus_stop", "public_transport": "platform"}}, {"type": "node", "id": 6570498209, "lat": -19.9746204, "lon": -44.0564365, "tags": {"bus": "yes", "highway": "bus_stop", "public_transport": "platform"}}, {"type": "node", "id": 6570498210, "lat": -19.9742595, "lon": -44.0545671, "tags": {"bus": "yes", "highway": "bus_stop", "public_transport": "platform"}}, {"type": "node", "id": 6587273059, "lat": -19.9117905, "lon": -43.963841, "tags": {"bus": "yes", "departures_board": "no", "highway": "bus_stop", "public_transport": "platform", "shelter": "no"}}, {"type": "node", "id": 6587273060, "lat": -19.912157, "lon": -43.9606474, "tags": {"bus": "yes", "highway": "bus_stop", "public_transport": "platform"}}, {"type": "node", "id": 6594845191, "lat": -19.9737311, "lon": -43.9734827, "tags": {"highway": "bus_stop", "name": "BH-Shopping (nr. 9250)"}}, {"type": "node", "id": 6615153156, "lat": -19.8728937, "lon": -43.9270682, "tags": {"bench": "yes", "bus": "yes", "highway": "bus_stop", "name": "Avenida Cristiano Machado 4050", "public_transport": "platform", "shelter": "yes"}}, {"type": "node", "id": 6615212585, "lat": -19.8788893, "lon": -43.9295734, "tags": {"bus": "yes", "highway": "bus_stop", "name": "Av. Cristiano Machado 2939", "public_transport": "platform"}}, {"type": "node", "id": 6615359495, "lat": -19.9758288, "lon": -43.9466071, "tags": {"bus": "yes", "highway": "bus_stop", "public_transport": "platform"}}, {"type": "node", "id": 6616544037, "lat": -19.9720416, "lon": -43.9414622, "tags": {"bench": "yes", "bus": "yes", "highway": "bus_stop", "name": "Avenida Paulo Camilo Pena 495", "public_transport": "platform", "shelter": "yes"}}, {"type": "node", "id": 6616544038, "lat": -19.9692854, "lon": -43.9422066, "tags": {"bus": "yes", "highway": "bus_stop", "name": "Avenida Celso Porfirio Machado 376", "public_transport": "platform"}}, {"type": "node", "id": 6616544039, "lat": -19.9670029, "lon": -43.93455, "tags": {"bus": "yes", "highway": "bus_stop", "name": "Avenida Celso Porfirio Machado 1000", "public_transport": "platform"}}, {"type": "node", "id": 6616544040, "lat": -19.9617489, "lon": -43.9357891, "tags": {"bus": "yes", "highway": "bus_stop", "name": "Avenida Celso Porfirio Machado 1706", "public_transport": "platform"}}, {"type": "node", "id": 6616544041, "lat": -19.958225, "lon": -43.9377727, "tags": {"bus": "yes", "highway": "bus_stop", "name": "Rua Da Patag\u00f4nia 481", "public_transport": "platform"}}, {"type": "node", "id": 6616544042, "lat": -19.957272, "lon": -43.9386552, "tags": {"bus": "yes", "highway": "bus_stop", "name": "Rua Da Patag\u00f4nia 299", "public_transport": "platform"}}, {"type": "node", "id": 6616544044, "lat": -19.9542689, "lon": -43.9394311, "tags": {"bus": "yes", "highway": "bus_stop", "name": "Avenida Nossa Senhora Do Carmo 1825", "public_transport": "platform", "shelter": "yes"}}, {"type": "node", "id": 6616582671, "lat": -19.9466316, "lon": -43.9347993, "tags": {"bus": "yes", "highway": "bus_stop", "name": "Avenida Nossa Senhora Do Carmo 777", "public_transport": "platform", "shelter": "yes"}}, {"type": "node", "id": 6616582672, "lat": -19.9072806, "lon": -43.9322171, "tags": {"bus": "yes", "highway": "bus_stop", "name": "Rua Jacu\u00ed 692", "public_transport": "platform"}}, {"type": "node", "id": 6671324711, "lat": -19.8696513, "lon": -43.9273137, "tags": {"bus": "yes", "highway": "bus_stop", "public_transport": "platform"}}, {"type": "node", "id": 6671324712, "lat": -19.8690019, "lon": -43.9253174, "tags": {"bus": "yes", "highway": "bus_stop", "public_transport": "platform"}}, {"type": "node", "id": 6671324713, "lat": -19.8683208, "lon": -43.92508, "tags": {"bus": "yes", "highway": "bus_stop", "public_transport": "platform"}}, {"type": "node", "id": 6684385969, "lat": -19.9529541, "lon": -43.9974403, "tags": {"addr:city": "Belo Horizonte", "addr:housenumber": "201", "addr:postcode": "30512-670", "addr:street": "Rua Virgem da Lapa", "addr:suburb": "Vista Alegre", "air_conditioning": "yes", "amenity": "place_of_worship", "denomination": "evangelical", "highway": "bus_stop", "name": "Assembl\u00e9ia de Deus", "religion": "christian", "service_times": "19:00 as 22:45"}}, {"type": "node", "id": 6711308659, "lat": -19.9154587, "lon": -43.9650808, "tags": {"bus": "yes", "departures_board": "timetable", "highway": "bus_stop", "public_transport": "platform", "shelter": "yes"}}, {"type": "node", "id": 6711308660, "lat": -19.9150222, "lon": -43.9655925, "tags": {"bus": "yes", "departures_board": "no", "highway": "bus_stop", "public_transport": "platform", "shelter": "no"}}, {"type": "node", "id": 6723592608, "lat": -19.9295386, "lon": -43.9730266, "tags": {"bus": "yes", "highway": "bus_stop", "public_transport": "platform"}}, {"type": "node", "id": 6723865165, "lat": -19.8722614, "lon": -43.9257994, "tags": {"bus": "yes", "highway": "bus_stop", "public_transport": "platform"}}, {"type": "node", "id": 6780657285, "lat": -19.9217465, "lon": -43.942149, "tags": {"bus": "yes", "highway": "bus_stop", "name": "\u00d4nibus 8301", "public_transport": "platform"}}, {"type": "node", "id": 6791414104, "lat": -19.9249364, "lon": -43.9117097, "tags": {"bus": "yes", "departures_board": "no", "highway": "bus_stop", "operator": "BHTrans", "public_transport": "platform", "shelter": "yes"}}, {"type": "node", "id": 6828591186, "lat": -19.8889251, "lon": -44.0022663, "tags": {"bus": "yes", "highway": "bus_stop", "name": "Avenida dos Engenheiros, 915", "public_transport": "stop_position", "ref_name": "Avenida dos Engenheiros, 915, Belo Horizonte"}}, {"type": "node", "id": 6828612485, "lat": -19.8904501, "lon": -44.0004542, "tags": {"bus": "yes", "highway": "bus_stop", "name": "Avenida dos Engenheiros, 724", "public_transport": "stop_position", "ref_name": "Avenida dos Engenheiros, 724, Belo Horizonte"}}, {"type": "node", "id": 6828612486, "lat": -19.8876376, "lon": -44.0038229, "tags": {"bus": "yes", "highway": "bus_stop", "name": "Avenida dos Engenheiros, 1237", "public_transport": "stop_position", "ref_name": "Avenida dos Engenheiros, 1237, Belo Horizonte"}}, {"type": "node", "id": 6828612487, "lat": -19.8903672, "lon": -43.9992525, "tags": {"bus": "yes", "highway": "bus_stop", "name": "Rua Cantor Luiz Gonzaga, 27", "public_transport": "stop_position", "ref_name": "Rua Cantor Luiz Gonzaga, 27, Belo Horizonte"}}, {"type": "node", "id": 6828612585, "lat": -19.8911188, "lon": -43.9995599, "tags": {"bus": "yes", "highway": "bus_stop", "name": "Avenida dos Engenheiros, 630", "public_transport": "stop_position", "ref_name": "Avenida dos Engenheiros, 630, Belo Horizonte"}}, {"type": "node", "id": 6828612685, "lat": -19.8863528, "lon": -44.0053196, "tags": {"bus": "yes", "highway": "bus_stop", "name": "Avenida dos Engenheiros, 1417", "public_transport": "stop_position", "ref_name": "Avenida dos Engenheiros, 1417, Belo Horizonte"}}, {"type": "node", "id": 6828612885, "lat": -19.889068, "lon": -44.0008325, "tags": {"bus": "yes", "highway": "bus_stop", "name": "Rua Cantor Luiz Gonzaga, 269", "public_transport": "stop_position", "ref_name": "Rua Cantor Luiz Gonzaga, 269, Belo Horizonte"}}, {"type": "node", "id": 6828624885, "lat": -19.8892965, "lon": -44.0017674, "tags": {"bus": "yes", "highway": "bus_stop", "name": "Avenida dos Engenheiros, 904", "public_transport": "stop_position", "ref_name": "Avenida dos Engenheiros, 904, Belo Horizonte"}}, {"type": "node", "id": 7012225992, "lat": -19.916818, "lon": -43.9162615, "tags": {"bus": "yes", "highway": "bus_stop", "public_transport": "platform", "route_ref": "9103/9210", "tactile_paving": "no"}}, {"type": "node", "id": 7012225993, "lat": -19.9172039, "lon": -43.9146978, "tags": {"bus": "yes", "highway": "bus_stop", "public_transport": "platform", "route_ref": "9103/9210", "tactile_paving": "no"}}, {"type": "node", "id": 7012225994, "lat": -19.9159606, "lon": -43.9154702, "tags": {"highway": "bus_stop", "route_ref": "9103/9210", "tactile_paving": "no"}}, {"type": "node", "id": 7012226008, "lat": -19.9164927, "lon": -43.9176643, "tags": {"highway": "bus_stop", "route_ref": "9103/9210", "tactile_paving": "no"}}, {"type": "node", "id": 7012226009, "lat": -19.9155824, "lon": -43.9213684, "tags": {"highway": "bus_stop", "route_ref": "9103/9210", "tactile_paving": "no"}}, {"type": "node", "id": 7012226010, "lat": -19.9161674, "lon": -43.9189692, "tags": {"bus": "yes", "highway": "bus_stop", "public_transport": "platform", "route_ref": "9103/9210", "tactile_paving": "no"}}, {"type": "node", "id": 7012746580, "lat": -19.9138546, "lon": -43.941889, "tags": {"bus": "yes", "highway": "bus_stop", "name": "Embarque", "public_transport": "platform", "shelter": "yes"}}, {"type": "node", "id": 7012748994, "lat": -19.9142227, "lon": -43.9416995, "tags": {"bus": "yes", "highway": "bus_stop", "name": "Desembarque", "public_transport": "platform", "shelter": "yes"}}, {"type": "node", "id": 7012748995, "lat": -19.9141848, "lon": -43.9416269, "tags": {"bus": "yes", "highway": "bus_stop", "name": "Desembarque", "public_transport": "platform", "shelter": "yes"}}, {"type": "node", "id": 7012748996, "lat": -19.9140331, "lon": -43.9427615, "tags": {"bus": "yes", "highway": "bus_stop", "public_transport": "platform"}}, {"type": "node", "id": 7012748997, "lat": -19.9143844, "lon": -43.942543, "tags": {"bus": "yes", "highway": "bus_stop", "public_transport": "platform"}}, {"type": "node", "id": 7012748998, "lat": -19.9141348, "lon": -43.9426982, "tags": {"bus": "yes", "highway": "bus_stop", "public_transport": "platform"}}, {"type": "node", "id": 7012748999, "lat": -19.9142797, "lon": -43.9426081, "tags": {"bus": "yes", "highway": "bus_stop", "public_transport": "platform"}}, {"type": "node", "id": 7276094233, "lat": -19.9369167, "lon": -43.9904134, "tags": {"bus": "yes", "departures_board": "no", "highway": "bus_stop", "public_transport": "platform", "shelter": "small"}}, {"type": "node", "id": 7278688376, "lat": -19.9378127, "lon": -43.9911018, "tags": {"bus": "yes", "departures_board": "no", "highway": "bus_stop", "public_transport": "platform", "shelter": "yes"}}, {"type": "node", "id": 7278688377, "lat": -19.9391511, "lon": -43.9908853, "tags": {"bus": "yes", "departures_board": "no", "highway": "bus_stop", "public_transport": "platform", "shelter": "yes"}}, {"type": "node", "id": 7278688378, "lat": -19.9394649, "lon": -43.9891592, "tags": {"bus": "yes", "departures_board": "no", "highway": "bus_stop", "public_transport": "platform", "shelter": "yes"}}, {"type": "node", "id": 7278688379, "lat": -19.9366791, "lon": -43.9888612, "tags": {"bus": "yes", "departures_board": "no", "highway": "bus_stop", "public_transport": "platform", "shelter": "yes"}}, {"type": "node", "id": 7283425933, "lat": -19.9365, "lon": -43.9930818, "tags": {"bench": "yes", "bus": "yes", "departures_board": "no", "highway": "bus_stop", "public_transport": "platform", "shelter": "yes"}}, {"type": "node", "id": 7284808404, "lat": -19.9387866, "lon": -43.9862471, "tags": {"bench": "no", "bin": "no", "bus": "yes", "departures_board": "no", "highway": "bus_stop", "lit": "no", "public_transport": "platform", "shelter": "no", "wheelchair": "no"}}, {"type": "node", "id": 7285442512, "lat": -19.9351111, "lon": -43.9844159, "tags": {"bench": "no", "bus": "yes", "departures_board": "no", "highway": "bus_stop", "public_transport": "platform", "shelter": "no", "wheelchair": "no"}}, {"type": "node", "id": 7297328240, "lat": -19.8823515, "lon": -43.913685, "tags": {"bus": "yes", "highway": "bus_stop", "public_transport": "platform"}}, {"type": "node", "id": 7711970867, "lat": -19.9089505, "lon": -43.977402, "tags": {"bus": "yes", "highway": "bus_stop", "public_transport": "platform"}}, {"type": "node", "id": 7711970868, "lat": -19.9085838, "lon": -43.9794555, "tags": {"bus": "yes", "highway": "bus_stop", "name": "Suplementar 54", "public_transport": "platform"}}, {"type": "node", "id": 7714966584, "lat": -19.9034231, "lon": -43.9617355, "tags": {"bus": "yes", "departures_board": "yes", "highway": "bus_stop", "public_transport": "platform", "ref": "4032"}}, {"type": "node", "id": 7833936959, "lat": -19.9197985, "lon": -43.9188187, "tags": {"bus": "yes", "highway": "bus_stop", "public_transport": "platform", "route_ref": "9103/9210", "tactile_paving": "no"}}, {"type": "node", "id": 7833936960, "lat": -19.9198322, "lon": -43.9201363, "tags": {"bus": "yes", "highway": "bus_stop", "public_transport": "platform", "route_ref": "9103/9210", "tactile_paving": "no"}}, {"type": "node", "id": 7833936961, "lat": -19.920381, "lon": -43.9219839, "tags": {"highway": "bus_stop", "route_ref": "9103/9210", "tactile_paving": "no"}}, {"type": "node", "id": 7833936962, "lat": -19.9201958, "lon": -43.9164024, "tags": {"bus": "yes", "highway": "bus_stop", "public_transport": "platform", "route_ref": "9103/9210", "tactile_paving": "no"}}, {"type": "node", "id": 8188430078, "lat": -19.918109, "lon": -43.9311818, "tags": {"bus": "yes", "highway": "bus_stop", "public_transport": "platform", "shelter": "yes"}}]}